Date/Time,Temp_C,Dew Point Temp_C,Rel Hum_%,Wind Speed_km/h,Visibility_km,Press_kPa,Weather Condition
1/3/2012 19:00,-16.9,-24.8,50,24,25.0,101.74,Clear
1/5/2012 18:00,-7.1,-14.4,56,11,25.0,100.71,Clear
1/5/2012 19:00,-9.2,-15.4,61,7,25.0,100.8,Clear
1/5/2012 20:00,-9.8,-15.7,62,9,25.0,100.83,Clear
1/5/2012 21:00,-9.0,-14.8,63,13,25.0,100.83,Clear
1/11/2012 1:00,-10.7,-17.8,56,17,25.0,101.49,Clear
1/11/2012 2:00,-12.0,-18.9,56,19,25.0,101.57,Clear
1/11/2012 3:00,-12.7,-19.4,57,19,25.0,101.64,Clear
1/11/2012 4:00,-13.4,-20.1,57,17,25.0,101.66,Clear
1/15/2012 8:00,-23.3,-28.5,62,7,24.1,102.45,Clear
1/15/2012 15:00,-15.4,-22.8,53,24,48.3,102.71,Clear
1/15/2012 16:00,-15.1,-22.8,52,24,48.3,102.79,Clear
1/15/2012 17:00,-16.2,-23.2,55,15,25.0,102.85,Clear
1/15/2012 18:00,-16.3,-22.9,57,17,25.0,102.89,Clear
1/15/2012 19:00,-16.3,-22.7,58,20,25.0,102.94,Clear
1/15/2012 20:00,-16.7,-22.4,61,17,25.0,102.98,Clear
1/15/2012 21:00,-16.9,-22.2,63,15,25.0,103.02,Clear
1/15/2012 22:00,-16.9,-21.7,66,17,25.0,103.07,Clear
1/15/2012 23:00,-16.9,-21.4,68,15,25.0,103.09,Clear
1/16/2012 0:00,-17.1,-21.9,66,15,25.0,103.09,Clear
1/16/2012 1:00,-17.8,-22.7,65,6,25.0,103.05,Clear
1/16/2012 2:00,-18.5,-23.0,68,6,25.0,103.08,Clear
1/16/2012 3:00,-19.2,-23.8,67,6,25.0,103.07,Clear
1/16/2012 4:00,-18.7,-23.5,66,0,25.0,103.05,Clear
1/16/2012 5:00,-19.1,-23.3,69,0,25.0,103.02,Clear
1/16/2012 6:00,-18.7,-23.2,68,0,25.0,103.01,Clear
1/18/2012 17:00,-11.3,-18.8,54,26,48.3,101.54,Clear
1/18/2012 18:00,-12.0,-18.2,60,22,25.0,101.67,Clear
1/18/2012 19:00,-12.7,-18.7,61,22,25.0,101.78,Clear
1/18/2012 20:00,-13.4,-19.2,62,17,25.0,101.83,Clear
1/18/2012 21:00,-13.7,-19.3,63,17,25.0,101.89,Clear
1/18/2012 22:00,-14.2,-19.8,62,13,25.0,101.92,Clear
1/18/2012 23:00,-14.9,-19.9,66,6,25.0,101.93,Clear
1/19/2012 0:00,-16.6,-20.9,69,7,25.0,101.94,Clear
1/19/2012 1:00,-15.2,-18.4,76,4,25.0,101.89,Clear
1/19/2012 2:00,-14.3,-17.4,77,6,25.0,101.86,Clear
1/19/2012 3:00,-18.0,-21.6,73,6,25.0,101.83,Clear
1/19/2012 4:00,-15.4,-18.3,78,7,25.0,101.81,Clear
1/19/2012 5:00,-16.6,-19.9,76,6,25.0,101.85,Clear
1/19/2012 6:00,-15.3,-19.7,69,6,25.0,101.83,Clear
1/19/2012 7:00,-14.6,-19.2,68,6,24.1,101.84,Clear
1/19/2012 8:00,-13.7,-18.4,68,19,48.3,101.84,Clear
1/19/2012 9:00,-12.7,-17.2,69,17,48.3,101.73,Clear
1/20/2012 9:00,-12.2,-18.1,61,32,24.1,101.59,Clear
1/20/2012 11:00,-14.2,-21.2,55,32,24.1,101.84,Clear
1/20/2012 12:00,-15.2,-22.1,56,30,24.1,101.88,Clear
1/20/2012 13:00,-15.8,-23.7,51,30,24.1,101.96,Clear
1/21/2012 14:00,-12.5,-19.7,55,13,24.1,102.01,Clear
1/21/2012 15:00,-11.8,-18.9,56,11,24.1,102.06,Clear
1/21/2012 16:00,-11.6,-18.8,55,7,48.3,102.11,Clear
1/21/2012 17:00,-12.1,-19.8,53,11,48.3,102.16,Clear
1/21/2012 18:00,-13.0,-20.2,55,6,25.0,102.24,Clear
1/21/2012 19:00,-13.4,-19.9,58,4,25.0,102.27,Clear
1/21/2012 20:00,-18.5,-24.4,60,4,25.0,102.36,Clear
1/21/2012 21:00,-16.0,-20.8,66,9,25.0,102.47,Clear
1/21/2012 22:00,-17.6,-23.3,61,0,25.0,102.52,Clear
1/22/2012 0:00,-18.3,-22.5,70,0,25.0,102.57,Clear
1/22/2012 1:00,-17.5,-21.3,72,4,25.0,102.64,Clear
1/22/2012 2:00,-18.5,-22.6,70,0,25.0,102.71,Clear
1/22/2012 21:00,-12.9,-17.2,70,15,16.1,102.38,Clear
1/26/2012 1:00,-7.0,-12.1,67,4,25.0,101.95,Clear
1/26/2012 2:00,-8.2,-12.6,71,6,25.0,101.99,Clear
1/26/2012 3:00,-8.1,-12.5,71,0,25.0,101.97,Clear
1/26/2012 4:00,-8.5,-13.5,67,0,25.0,101.95,Clear
1/26/2012 5:00,-9.0,-13.9,68,6,25.0,102.02,Clear
1/26/2012 6:00,-11.2,-15.0,73,6,25.0,102.06,Clear
1/26/2012 8:00,-9.2,-13.3,72,6,24.1,102.08,Clear
1/29/2012 23:00,-3.4,-7.6,73,15,25.0,100.85,Clear
1/30/2012 0:00,-3.7,-8.8,68,11,25.0,100.89,Clear
1/30/2012 2:00,-5.1,-10.0,68,15,25.0,100.99,Clear
1/30/2012 3:00,-6.1,-10.3,72,11,25.0,101.07,Clear
1/30/2012 4:00,-7.7,-11.8,72,11,25.0,101.19,Clear
1/30/2012 5:00,-7.9,-13.8,63,13,25.0,101.33,Clear
1/30/2012 6:00,-8.9,-15.1,61,15,25.0,101.47,Clear
1/30/2012 7:00,-9.8,-16.0,61,15,25.0,101.55,Clear
1/30/2012 8:00,-10.5,-17.0,59,9,48.3,101.68,Clear
1/30/2012 14:00,-6.7,-15.0,52,22,48.3,101.81,Clear
2/4/2012 6:00,-9.4,-13.9,70,9,25.0,102.27,Clear
2/4/2012 7:00,-11.0,-14.7,74,7,48.3,102.25,Clear
2/4/2012 8:00,-11.6,-15.6,72,9,48.3,102.31,Clear
2/4/2012 9:00,-9.6,-14.1,70,13,48.3,102.37,Clear
2/4/2012 11:00,-7.6,-13.6,62,0,48.3,102.29,Clear
2/4/2012 16:00,-5.7,-12.8,57,9,48.3,101.99,Clear
2/4/2012 17:00,-6.2,-13.5,56,11,48.3,101.97,Clear
2/4/2012 18:00,-6.6,-13.7,57,9,25.0,101.96,Clear
2/4/2012 19:00,-7.7,-14.0,61,7,25.0,101.97,Clear
2/4/2012 20:00,-8.8,-14.4,64,6,25.0,101.97,Clear
2/4/2012 21:00,-9.9,-14.5,69,6,25.0,101.97,Clear
2/4/2012 22:00,-10.3,-14.9,69,0,25.0,101.93,Clear
2/4/2012 23:00,-10.1,-14.3,71,0,25.0,101.89,Clear
2/5/2012 0:00,-11.9,-15.3,76,6,25.0,101.89,Clear
2/5/2012 1:00,-12.1,-15.0,79,6,25.0,101.87,Clear
2/5/2012 2:00,-14.4,-17.1,80,6,25.0,101.88,Clear
2/5/2012 3:00,-12.9,-15.7,79,6,25.0,101.86,Clear
2/5/2012 4:00,-14.9,-17.9,78,6,25.0,101.86,Clear
2/5/2012 5:00,-14.2,-17.0,79,7,25.0,101.91,Clear
2/5/2012 6:00,-14.7,-17.5,79,4,19.3,101.93,Clear
2/5/2012 7:00,-15.7,-18.6,78,4,24.1,101.93,Clear
2/5/2012 8:00,-15.0,-17.5,81,4,24.1,101.95,Clear
2/5/2012 9:00,-13.5,-16.1,81,0,24.1,101.97,Clear
2/7/2012 13:00,-5.2,-14.3,49,15,24.1,101.73,Clear
2/7/2012 14:00,-5.1,-15.1,45,15,24.1,101.79,Clear
2/7/2012 15:00,-4.8,-15.4,43,19,24.1,101.85,Clear
2/7/2012 16:00,-5.0,-16.4,40,22,24.1,101.88,Clear
2/7/2012 17:00,-5.9,-17.6,39,19,48.3,101.94,Clear
2/7/2012 18:00,-7.3,-17.4,44,11,25.0,102.03,Clear
2/7/2012 19:00,-8.2,-17.8,46,9,25.0,102.09,Clear
2/7/2012 20:00,-9.2,-18.4,47,11,25.0,102.12,Clear
2/7/2012 21:00,-9.6,-18.9,47,13,25.0,102.15,Clear
2/7/2012 22:00,-10.8,-20.1,46,9,25.0,102.21,Clear
2/7/2012 23:00,-11.8,-20.8,47,9,25.0,102.21,Clear
2/8/2012 0:00,-13.8,-21.5,52,4,25.0,102.21,Clear
2/8/2012 1:00,-11.9,-20.6,48,9,25.0,102.21,Clear
2/8/2012 2:00,-12.1,-20.4,50,6,25.0,102.2,Clear
2/8/2012 3:00,-12.4,-20.4,51,11,25.0,102.15,Clear
2/8/2012 4:00,-14.0,-21.0,55,4,25.0,102.13,Clear
2/8/2012 5:00,-12.6,-21.2,49,0,25.0,102.11,Clear
2/8/2012 12:00,-4.6,-12.9,52,20,48.3,101.76,Clear
2/8/2012 13:00,-3.3,-12.9,47,32,48.3,101.63,Clear
2/8/2012 19:00,-3.2,-12.4,49,22,25.0,101.28,Clear
2/8/2012 20:00,-3.3,-12.1,51,22,25.0,101.26,Clear
2/8/2012 23:00,-3.6,-8.1,71,20,25.0,101.19,Clear
2/9/2012 0:00,-4.0,-8.3,72,13,25.0,101.17,Clear
2/9/2012 1:00,-3.4,-7.9,71,13,25.0,101.16,Clear
2/9/2012 2:00,-3.9,-8.0,73,11,25.0,101.17,Clear
2/9/2012 3:00,-3.5,-7.9,72,24,25.0,101.12,Clear
2/9/2012 4:00,-3.4,-8.0,70,26,25.0,101.1,Clear
2/9/2012 5:00,-4.1,-8.3,73,20,25.0,101.11,Clear
2/9/2012 6:00,-4.9,-8.9,73,20,25.0,101.13,Clear
2/9/2012 8:00,-4.9,-8.8,74,20,24.1,101.23,Clear
2/9/2012 11:00,-1.2,-7.3,63,24,24.1,101.27,Clear
2/9/2012 12:00,-0.1,-7.3,58,24,48.3,101.19,Clear
2/9/2012 13:00,0.7,-7.1,56,26,48.3,101.13,Clear
2/9/2012 14:00,1.5,-6.3,56,30,24.1,101.05,Clear
2/9/2012 15:00,2.4,-6.2,53,24,48.3,101.03,Clear
2/9/2012 16:00,2.7,-6.5,51,22,48.3,101.01,Clear
2/9/2012 17:00,2.0,-6.3,54,20,48.3,101.02,Clear
2/9/2012 18:00,1.6,-6.6,54,22,24.1,101.06,Clear
2/9/2012 19:00,0.4,-5.9,63,20,25.0,101.1,Clear
2/9/2012 20:00,0.5,-6.6,59,17,25.0,101.11,Clear
2/9/2012 21:00,0.2,-5.5,65,22,25.0,101.13,Clear
2/9/2012 22:00,0.8,-4.7,67,28,25.0,101.11,Clear
2/9/2012 23:00,0.1,-4.9,69,26,25.0,101.1,Clear
2/10/2012 0:00,0.4,-3.5,75,22,25.0,101.12,Clear
2/10/2012 1:00,0.1,-4.1,73,19,25.0,101.13,Clear
2/10/2012 2:00,0.0,-4.3,73,22,25.0,101.15,Clear
2/10/2012 3:00,-1.0,-4.3,78,17,25.0,101.13,Clear
2/10/2012 4:00,-0.8,-4.4,77,20,25.0,101.1,Clear
2/10/2012 5:00,-0.8,-4.3,77,22,25.0,101.07,Clear
2/10/2012 6:00,-0.7,-4.0,78,22,25.0,101.07,Clear
2/11/2012 18:00,-12.8,-17.9,66,4,25.0,100.72,Clear
2/11/2012 19:00,-14.0,-21.2,54,7,25.0,100.74,Clear
2/11/2012 20:00,-14.4,-19.9,63,9,25.0,100.73,Clear
2/11/2012 21:00,-13.9,-18.6,68,7,25.0,100.71,Clear
2/11/2012 22:00,-13.5,-18.2,68,6,25.0,100.7,Clear
2/11/2012 23:00,-14.5,-20.8,59,13,25.0,100.68,Clear
2/12/2012 0:00,-15.0,-22.4,53,11,25.0,100.66,Clear
2/12/2012 2:00,-15.9,-23.7,51,6,25.0,100.6,Clear
2/18/2012 20:00,-1.7,-7.8,63,11,25.0,101.09,Clear
2/18/2012 21:00,-2.4,-8.1,65,9,25.0,101.16,Clear
2/18/2012 22:00,-3.5,-8.3,69,9,25.0,101.21,Clear
2/18/2012 23:00,-3.9,-8.7,69,9,25.0,101.29,Clear
2/19/2012 0:00,-3.9,-8.8,69,13,25.0,101.37,Clear
2/19/2012 3:00,-6.0,-10.3,72,0,25.0,101.43,Clear
2/19/2012 6:00,-6.7,-10.3,76,6,25.0,101.5,Clear
2/19/2012 14:00,-2.3,-9.5,58,15,48.3,101.45,Clear
2/19/2012 15:00,-1.6,-9.3,56,17,48.3,101.43,Clear
2/19/2012 16:00,-1.6,-9.7,54,20,48.3,101.37,Clear
2/19/2012 17:00,-2.1,-9.8,56,15,48.3,101.36,Clear
2/19/2012 18:00,-2.9,-9.8,59,13,48.3,101.39,Clear
2/19/2012 19:00,-3.2,-10.0,59,15,25.0,101.43,Clear
2/19/2012 20:00,-3.8,-10.1,62,13,25.0,101.47,Clear
2/19/2012 21:00,-4.8,-10.0,67,11,25.0,101.51,Clear
2/19/2012 22:00,-5.4,-10.2,69,9,25.0,101.52,Clear
2/19/2012 23:00,-6.3,-11.8,65,7,25.0,101.52,Clear
2/20/2012 0:00,-6.7,-12.4,64,4,25.0,101.55,Clear
2/20/2012 1:00,-7.6,-12.6,67,0,25.0,101.63,Clear
2/20/2012 2:00,-8.8,-12.3,76,4,25.0,101.66,Clear
2/20/2012 3:00,-8.8,-12.7,73,7,25.0,101.68,Clear
2/20/2012 4:00,-9.8,-13.0,77,6,25.0,101.69,Clear
2/20/2012 5:00,-10.2,-13.7,75,6,25.0,101.77,Clear
2/20/2012 6:00,-10.7,-14.3,75,4,25.0,101.81,Clear
2/20/2012 7:00,-11.0,-14.4,76,4,24.1,101.87,Clear
2/20/2012 17:00,-1.9,-8.9,59,17,48.3,102.08,Clear
2/20/2012 18:00,-3.2,-8.8,65,9,48.3,102.1,Clear
2/20/2012 19:00,-3.6,-8.7,68,7,25.0,102.13,Clear
2/20/2012 21:00,-3.5,-8.9,66,6,25.0,102.18,Clear
2/20/2012 22:00,-3.3,-8.8,66,0,25.0,102.2,Clear
2/20/2012 23:00,-5.8,-9.3,76,4,25.0,102.2,Clear
2/21/2012 0:00,-4.0,-8.1,73,9,25.0,102.21,Clear
2/21/2012 1:00,-4.3,-8.4,73,6,25.0,102.18,Clear
2/21/2012 2:00,-4.1,-8.1,74,7,25.0,102.21,Clear
2/21/2012 3:00,-5.3,-8.9,76,4,25.0,102.19,Clear
2/21/2012 4:00,-5.2,-8.2,79,4,25.0,102.12,Clear
2/23/2012 19:00,1.6,-4.8,62,19,25.0,100.05,Clear
2/23/2012 20:00,1.1,-5.0,64,15,25.0,100.12,Clear
2/23/2012 21:00,0.5,-5.2,66,13,25.0,100.23,Clear
2/23/2012 22:00,-0.2,-5.4,68,9,25.0,100.28,Clear
2/23/2012 23:00,-1.0,-5.2,73,7,25.0,100.31,Clear
2/24/2012 0:00,-0.9,-5.1,73,6,25.0,100.34,Clear
2/24/2012 1:00,-1.7,-5.1,78,4,25.0,100.29,Clear
2/24/2012 2:00,-1.8,-5.4,76,0,25.0,100.2,Clear
2/26/2012 2:00,-9.2,-14.6,65,22,25.0,101.26,Clear
2/26/2012 5:00,-11.6,-15.9,70,20,25.0,101.77,Clear
2/26/2012 6:00,-11.3,-16.8,64,22,25.0,101.92,Clear
2/26/2012 7:00,-12.1,-17.8,62,22,48.3,102.07,Clear
2/26/2012 10:00,-11.2,-20.3,47,22,48.3,102.35,Clear
2/26/2012 11:00,-10.1,-20.1,44,26,48.3,102.39,Clear
2/26/2012 12:00,-9.3,-18.6,47,28,48.3,102.42,Clear
2/28/2012 9:00,-8.3,-13.8,64,20,48.3,102.63,Clear
2/28/2012 10:00,-7.5,-13.6,62,13,24.1,102.65,Clear
2/28/2012 11:00,-6.5,-13.1,59,9,48.3,102.69,Clear
2/28/2012 18:00,-5.3,-12.5,57,17,24.1,102.56,Clear
2/28/2012 19:00,-5.9,-12.9,58,7,25.0,102.58,Clear
2/28/2012 20:00,-6.8,-13.4,59,11,25.0,102.56,Clear
2/28/2012 21:00,-8.7,-14.6,62,11,25.0,102.53,Clear
2/28/2012 22:00,-8.3,-14.0,63,0,25.0,102.52,Clear
2/28/2012 23:00,-10.0,-15.3,65,9,25.0,102.52,Clear
2/29/2012 0:00,-8.2,-13.8,64,9,25.0,102.51,Clear
2/29/2012 1:00,-9.5,-14.8,65,4,25.0,102.47,Clear
2/29/2012 3:00,-11.5,-14.7,77,0,25.0,102.45,Clear
2/29/2012 5:00,-13.1,-16.0,79,0,25.0,102.4,Clear
2/29/2012 6:00,-12.2,-15.2,78,0,25.0,102.41,Clear
3/5/2012 2:00,-14.5,-22.3,52,24,25.0,100.39,Clear
3/5/2012 3:00,-15.0,-21.5,58,22,25.0,100.47,Clear
3/5/2012 4:00,-15.5,-21.9,58,26,25.0,100.55,Clear
3/5/2012 5:00,-15.9,-22.1,59,20,25.0,100.69,Clear
3/5/2012 19:00,-10.1,-19.1,48,20,25.0,102.01,Clear
3/5/2012 21:00,-11.0,-19.6,49,17,25.0,102.23,Clear
3/5/2012 22:00,-11.6,-20.2,49,15,25.0,102.29,Clear
3/5/2012 23:00,-12.6,-20.3,53,11,25.0,102.34,Clear
3/6/2012 0:00,-13.4,-20.5,55,11,25.0,102.41,Clear
3/6/2012 1:00,-13.4,-20.3,56,11,25.0,102.5,Clear
3/6/2012 2:00,-13.7,-20.7,55,4,25.0,102.55,Clear
3/6/2012 3:00,-14.8,-21.1,59,9,25.0,102.61,Clear
3/6/2012 4:00,-14.5,-21.1,57,9,25.0,102.7,Clear
3/6/2012 5:00,-14.6,-21.0,58,13,25.0,102.85,Clear
3/6/2012 6:00,-15.3,-21.3,60,11,24.1,102.9,Clear
3/6/2012 7:00,-14.8,-20.7,61,11,48.3,103.0,Clear
3/6/2012 8:00,-13.0,-19.4,59,0,48.3,103.06,Clear
3/6/2012 9:00,-11.3,-19.1,52,6,48.3,103.1,Clear
3/7/2012 9:00,-2.5,-7.7,67,11,24.1,101.85,Clear
3/7/2012 10:00,-0.1,-6.5,62,6,24.1,101.76,Clear
3/9/2012 7:00,-5.0,-9.7,70,15,24.1,101.31,Clear
3/9/2012 8:00,-4.7,-10.2,65,15,24.1,101.41,Clear
3/9/2012 9:00,-4.0,-9.5,66,20,24.1,101.46,Clear
3/10/2012 12:00,-4.1,-12.1,54,7,48.3,102.99,Clear
3/11/2012 7:00,-1.8,-6.9,68,11,48.3,101.97,Clear
3/11/2012 8:00,0.1,-6.2,63,7,48.3,102.0,Clear
3/11/2012 10:00,3.8,-5.7,50,13,48.3,101.97,Clear
3/11/2012 11:00,5.9,-4.2,48,11,48.3,101.92,Clear
3/11/2012 12:00,6.8,-3.2,49,24,48.3,101.86,Clear
3/11/2012 13:00,9.0,-1.9,46,20,48.3,101.79,Clear
3/11/2012 14:00,9.5,-1.6,46,24,48.3,101.74,Clear
3/11/2012 15:00,10.5,-1.3,44,20,48.3,101.69,Clear
3/11/2012 16:00,10.9,-0.7,45,15,48.3,101.65,Clear
3/11/2012 17:00,10.7,-0.6,45,11,48.3,101.65,Clear
3/11/2012 18:00,9.1,-1.0,49,7,25.0,101.68,Clear
3/11/2012 19:00,7.4,-1.2,54,6,25.0,101.69,Clear
3/11/2012 20:00,4.8,-1.5,64,9,48.3,101.7,Clear
3/11/2012 22:00,5.2,-1.9,60,6,25.0,101.72,Clear
3/11/2012 23:00,6.1,-2.0,56,7,25.0,101.75,Clear
3/12/2012 0:00,6.0,-1.8,57,20,25.0,101.77,Clear
3/12/2012 5:00,2.3,-1.9,74,9,25.0,101.82,Clear
3/12/2012 6:00,3.1,-1.8,70,11,48.3,101.89,Clear
3/18/2012 3:00,3.9,2.4,90,7,25.0,101.66,Clear
3/18/2012 4:00,3.2,2.3,94,6,25.0,101.69,Clear
3/18/2012 5:00,3.5,2.4,92,6,25.0,101.7,Clear
3/18/2012 6:00,3.6,2.6,93,7,24.1,101.72,Clear
3/18/2012 11:00,14.1,7.6,65,13,48.3,101.71,Clear
3/18/2012 12:00,17.3,8.7,57,11,48.3,101.63,Clear
3/18/2012 20:00,12.8,8.6,76,7,25.0,101.34,Clear
3/19/2012 1:00,10.8,8.5,86,6,25.0,101.39,Clear
3/19/2012 2:00,10.6,8.6,87,4,25.0,101.42,Clear
3/19/2012 3:00,10.2,8.3,88,11,25.0,101.42,Clear
3/19/2012 4:00,11.2,9.0,86,6,25.0,101.49,Clear
3/19/2012 5:00,9.7,8.1,90,7,25.0,101.5,Clear
3/19/2012 21:00,9.5,4.1,69,15,25.0,101.8,Clear
3/19/2012 22:00,8.8,2.7,66,17,25.0,101.83,Clear
3/19/2012 23:00,7.2,1.8,69,9,25.0,101.86,Clear
3/20/2012 0:00,7.1,1.0,65,11,25.0,101.85,Clear
3/20/2012 1:00,6.1,0.7,68,11,25.0,101.85,Clear
3/20/2012 2:00,5.7,0.4,69,11,25.0,101.85,Clear
3/20/2012 3:00,5.2,0.2,70,7,25.0,101.86,Clear
3/20/2012 4:00,5.2,-0.2,68,4,25.0,101.88,Clear
3/20/2012 5:00,5.0,-0.3,69,7,25.0,101.92,Clear
3/20/2012 6:00,3.2,-0.6,76,4,24.1,101.97,Clear
3/20/2012 7:00,5.5,-0.1,67,4,24.1,102.0,Clear
3/20/2012 8:00,8.0,0.6,60,6,24.1,102.08,Clear
3/20/2012 11:00,14.9,4.0,48,6,24.1,102.02,Clear
3/20/2012 12:00,16.5,6.7,52,9,24.1,101.98,Clear
3/20/2012 13:00,20.0,10.8,55,13,24.1,101.93,Clear
3/20/2012 14:00,21.5,11.8,54,11,24.1,101.83,Clear
3/20/2012 15:00,22.5,12.3,52,9,24.1,101.78,Clear
3/20/2012 16:00,23.3,12.1,49,7,24.1,101.73,Clear
3/20/2012 17:00,22.0,12.1,53,7,24.1,101.72,Clear
3/20/2012 18:00,19.7,11.7,60,4,24.1,101.74,Clear
3/20/2012 19:00,17.5,10.9,65,6,25.0,101.79,Clear
3/20/2012 20:00,18.1,11.6,66,4,25.0,101.85,Clear
3/20/2012 21:00,16.0,10.9,72,6,25.0,101.89,Clear
3/20/2012 22:00,14.2,10.3,77,4,25.0,101.9,Clear
3/20/2012 23:00,14.3,10.7,79,6,25.0,101.91,Clear
3/21/2012 0:00,14.0,11.0,82,9,25.0,101.9,Clear
3/21/2012 1:00,12.4,10.5,88,4,25.0,101.92,Clear
3/21/2012 2:00,11.8,10.3,91,6,25.0,101.93,Clear
3/21/2012 3:00,11.4,9.8,90,4,25.0,101.93,Clear
3/21/2012 4:00,10.6,9.1,90,0,25.0,101.95,Clear
3/21/2012 5:00,10.0,8.8,92,0,25.0,102.02,Clear
3/21/2012 8:00,13.8,11.5,86,9,12.9,102.15,Clear
3/21/2012 9:00,15.9,11.8,77,7,19.3,102.17,Clear
3/21/2012 10:00,18.2,12.5,69,13,24.1,102.09,Clear
3/21/2012 11:00,20.2,12.3,60,15,24.1,102.01,Clear
3/21/2012 12:00,22.3,12.6,54,15,24.1,101.94,Clear
3/21/2012 13:00,23.8,12.1,48,17,24.1,101.85,Clear
3/21/2012 14:00,24.7,12.1,45,13,24.1,101.77,Clear
3/21/2012 15:00,25.4,12.0,43,17,48.3,101.72,Clear
3/21/2012 16:00,25.5,11.0,40,17,48.3,101.69,Clear
3/21/2012 17:00,25.2,10.7,40,13,48.3,101.68,Clear
3/21/2012 18:00,20.7,9.7,49,9,48.3,101.67,Clear
3/21/2012 19:00,17.2,9.1,59,6,25.0,101.67,Clear
3/21/2012 20:00,18.4,8.9,54,7,25.0,101.7,Clear
3/21/2012 21:00,16.4,9.7,65,13,25.0,101.68,Clear
3/21/2012 22:00,18.0,10.5,62,7,25.0,101.66,Clear
3/21/2012 23:00,16.5,9.5,63,7,25.0,101.66,Clear
3/22/2012 0:00,17.0,9.1,60,13,25.0,101.63,Clear
3/22/2012 1:00,15.5,8.7,64,11,25.0,101.62,Clear
3/22/2012 2:00,15.0,8.7,66,7,25.0,101.59,Clear
3/22/2012 3:00,11.0,7.4,78,9,25.0,101.56,Clear
3/22/2012 4:00,13.2,8.4,73,6,25.0,101.54,Clear
3/22/2012 5:00,12.8,8.5,75,13,25.0,101.59,Clear
3/22/2012 23:00,11.3,7.2,76,6,25.0,101.62,Clear
3/23/2012 4:00,9.2,6.3,82,7,25.0,101.76,Clear
3/23/2012 5:00,8.0,5.2,82,9,25.0,101.85,Clear
3/23/2012 6:00,6.6,2.9,77,7,25.0,101.9,Clear
3/23/2012 7:00,8.4,3.0,69,0,48.3,101.93,Clear
3/23/2012 8:00,11.3,1.8,52,0,48.3,101.93,Clear
3/23/2012 9:00,12.8,2.3,49,4,48.3,101.94,Clear
3/23/2012 10:00,14.5,0.1,37,17,48.3,101.93,Clear
3/23/2012 11:00,14.9,-3.0,29,15,48.3,101.87,Clear
3/26/2012 4:00,-1.1,-10.4,49,22,25.0,100.74,Clear
3/26/2012 5:00,-1.9,-10.9,50,20,25.0,100.86,Clear
3/26/2012 6:00,-3.8,-13.4,47,32,24.1,101.03,Clear
3/26/2012 16:00,1.3,-15.7,27,30,48.3,101.29,Clear
3/26/2012 17:00,1.2,-16.3,26,32,48.3,101.34,Clear
3/26/2012 18:00,0.1,-17.3,26,24,48.3,101.43,Clear
3/26/2012 19:00,-0.7,-18.0,26,28,25.0,101.56,Clear
3/26/2012 20:00,-1.4,-18.7,25,28,25.0,101.68,Clear
3/26/2012 21:00,-2.3,-18.4,28,24,25.0,101.79,Clear
3/26/2012 22:00,-2.9,-17.8,31,28,25.0,101.84,Clear
3/26/2012 23:00,-3.6,-17.4,33,26,25.0,101.9,Clear
3/27/2012 0:00,-4.3,-17.6,35,22,25.0,101.94,Clear
3/27/2012 1:00,-5.0,-17.7,36,19,25.0,101.96,Clear
3/27/2012 2:00,-5.4,-16.8,40,17,25.0,102.02,Clear
3/27/2012 3:00,-6.0,-17.0,41,17,25.0,102.06,Clear
3/27/2012 4:00,-6.5,-17.3,42,13,25.0,102.14,Clear
3/27/2012 5:00,-7.4,-16.4,49,11,25.0,102.24,Clear
3/27/2012 6:00,-7.5,-16.4,49,9,48.3,102.31,Clear
3/27/2012 7:00,-6.1,-17.7,39,9,48.3,102.39,Clear
3/27/2012 8:00,-5.1,-18.7,34,13,48.3,102.41,Clear
3/27/2012 9:00,-4.3,-20.3,27,9,48.3,102.44,Clear
3/27/2012 10:00,-2.5,-21.7,21,0,48.3,102.48,Clear
3/27/2012 11:00,-1.6,-20.6,22,6,48.3,102.43,Clear
3/27/2012 12:00,0.2,-16.7,27,9,48.3,102.31,Clear
3/30/2012 2:00,-2.2,-9.7,56,15,25.0,101.22,Clear
3/30/2012 5:00,-5.1,-10.4,66,11,24.1,101.32,Clear
3/30/2012 6:00,-4.8,-10.8,63,13,48.3,101.39,Clear
3/30/2012 7:00,-4.3,-10.9,60,15,48.3,101.52,Clear
3/30/2012 8:00,-3.0,-10.4,57,11,48.3,101.56,Clear
3/30/2012 9:00,-2.0,-10.1,54,13,48.3,101.63,Clear
3/30/2012 10:00,-0.8,-9.5,52,9,48.3,101.62,Clear
3/31/2012 11:00,4.6,-9.7,35,7,48.3,101.24,Clear
3/31/2012 12:00,6.4,-7.1,37,11,48.3,101.16,Clear
3/31/2012 13:00,6.5,-9.7,30,9,48.3,101.08,Clear
3/31/2012 19:00,5.9,-8.0,36,4,25.0,100.88,Clear
3/31/2012 20:00,4.4,-7.2,43,9,25.0,100.85,Clear
3/31/2012 21:00,2.6,-6.3,52,7,25.0,100.86,Clear
3/31/2012 22:00,2.7,-6.7,50,0,25.0,100.82,Clear
3/31/2012 23:00,1.5,-6.9,54,0,25.0,100.79,Clear
4/1/2012 0:00,0.4,-6.6,59,0,25.0,100.75,Clear
4/1/2012 1:00,-1.5,-7.3,65,4,25.0,100.77,Clear
4/1/2012 2:00,0.1,-6.9,59,0,25.0,100.7,Clear
4/1/2012 3:00,-1.0,-6.2,68,0,25.0,100.67,Clear
4/2/2012 2:00,-0.4,-1.8,90,0,12.9,100.31,Clear
4/2/2012 5:00,-1.7,-2.5,94,6,25.0,100.47,Clear
4/2/2012 6:00,-1.8,-3.5,88,6,24.1,100.56,Clear
4/2/2012 7:00,0.2,-2.1,84,6,48.3,100.65,Clear
4/2/2012 8:00,2.1,-4.5,62,13,48.3,100.69,Clear
4/2/2012 9:00,3.4,-7.3,45,22,48.3,100.72,Clear
4/2/2012 10:00,4.5,-8.5,38,28,48.3,100.73,Clear
4/2/2012 11:00,4.6,-7.8,40,24,48.3,100.72,Clear
4/2/2012 12:00,6.2,-7.8,36,17,48.3,100.65,Clear
4/2/2012 13:00,6.7,-7.2,36,24,48.3,100.64,Clear
4/2/2012 14:00,7.3,-8.5,32,26,48.3,100.62,Clear
4/2/2012 15:00,7.9,-10.0,27,19,48.3,100.6,Clear
4/2/2012 16:00,7.9,-12.0,23,28,48.3,100.59,Clear
4/2/2012 18:00,6.9,-13.6,22,19,48.3,100.65,Clear
4/2/2012 19:00,4.9,-12.6,27,13,25.0,100.69,Clear
4/2/2012 20:00,3.5,-13.1,28,13,25.0,100.75,Clear
4/2/2012 21:00,3.1,-13.0,30,11,25.0,100.78,Clear
4/2/2012 22:00,0.6,-12.8,36,9,25.0,100.84,Clear
4/2/2012 23:00,1.0,-12.8,35,13,25.0,100.83,Clear
4/3/2012 0:00,-0.3,-11.9,41,6,25.0,100.84,Clear
4/3/2012 1:00,-1.1,-11.4,45,9,25.0,100.86,Clear
4/3/2012 2:00,-0.9,-13.2,39,6,25.0,100.84,Clear
4/3/2012 3:00,-3.0,-12.0,50,9,25.0,100.87,Clear
4/3/2012 4:00,-2.1,-11.8,47,13,25.0,100.92,Clear
4/3/2012 5:00,-2.6,-12.4,47,6,25.0,100.99,Clear
4/3/2012 6:00,-2.0,-12.4,45,6,48.3,101.03,Clear
4/3/2012 7:00,0.3,-11.3,41,11,48.3,101.09,Clear
4/3/2012 8:00,1.7,-11.7,36,19,48.3,101.08,Clear
4/3/2012 9:00,2.5,-11.0,36,15,48.3,101.07,Clear
4/3/2012 10:00,4.3,-10.3,34,17,48.3,100.98,Clear
4/6/2012 7:00,0.4,-8.9,50,15,48.3,101.3,Clear
4/6/2012 8:00,1.1,-8.8,48,19,48.3,101.34,Clear
4/6/2012 9:00,2.1,-8.4,46,17,48.3,101.37,Clear
4/6/2012 11:00,5.7,-7.7,37,19,48.3,101.32,Clear
4/6/2012 13:00,7.6,-7.7,33,15,48.3,101.18,Clear
4/12/2012 22:00,6.7,-0.6,60,4,25.0,101.44,Clear
4/12/2012 23:00,5.9,-2.2,56,11,25.0,101.47,Clear
4/13/2012 0:00,4.6,-4.0,54,11,25.0,101.49,Clear
4/13/2012 1:00,4.0,-5.1,51,11,25.0,101.48,Clear
4/13/2012 2:00,2.0,-5.4,58,6,25.0,101.5,Clear
4/13/2012 3:00,1.5,-5.1,61,9,25.0,101.52,Clear
4/13/2012 4:00,1.2,-4.5,66,6,25.0,101.56,Clear
4/13/2012 5:00,1.3,-4.1,67,6,48.3,101.6,Clear
4/13/2012 6:00,1.8,-3.4,68,6,48.3,101.67,Clear
4/14/2012 0:00,7.9,-1.6,51,22,25.0,101.35,Clear
4/14/2012 1:00,7.5,-1.8,52,11,25.0,101.35,Clear
4/14/2012 2:00,6.8,-1.8,54,17,25.0,101.34,Clear
4/15/2012 3:00,11.3,2.3,54,15,25.0,100.7,Clear
4/15/2012 4:00,10.9,4.3,64,15,25.0,100.72,Clear
4/15/2012 5:00,9.9,4.5,69,6,25.0,100.72,Clear
4/18/2012 0:00,2.9,-5.1,56,13,25.0,102.2,Clear
4/18/2012 1:00,2.4,-5.7,55,15,25.0,102.18,Clear
4/18/2012 2:00,0.9,-6.5,58,15,25.0,102.22,Clear
4/18/2012 3:00,1.1,-7.0,55,11,25.0,102.25,Clear
4/18/2012 4:00,0.4,-7.0,58,9,25.0,102.29,Clear
4/18/2012 5:00,-1.0,-7.0,64,11,48.3,102.34,Clear
4/18/2012 6:00,0.9,-6.3,59,9,48.3,102.41,Clear
4/18/2012 7:00,2.5,-6.2,53,13,48.3,102.44,Clear
4/18/2012 8:00,3.3,-5.9,51,11,48.3,102.43,Clear
4/18/2012 9:00,4.5,-5.7,47,9,48.3,102.41,Clear
4/18/2012 10:00,5.3,-5.1,47,9,48.3,102.36,Clear
4/18/2012 11:00,6.9,-3.4,48,6,48.3,102.24,Clear
4/19/2012 1:00,5.5,-2.7,55,6,25.0,101.42,Clear
4/19/2012 2:00,3.3,-2.8,64,7,25.0,101.33,Clear
4/19/2012 21:00,16.1,4.5,46,11,25.0,100.72,Clear
4/20/2012 1:00,10.9,1.8,53,19,25.0,100.91,Clear
4/26/2012 3:00,3.5,-0.6,74,11,25.0,100.66,Clear
4/26/2012 4:00,2.7,-1.5,74,7,25.0,100.66,Clear
4/26/2012 5:00,2.6,-1.3,75,9,24.1,100.69,Clear
4/26/2012 6:00,3.2,-0.6,76,4,48.3,100.71,Clear
4/28/2012 18:00,7.2,-11.3,25,24,48.3,101.43,Clear
4/28/2012 19:00,6.1,-11.4,27,19,48.3,101.46,Clear
4/28/2012 21:00,2.3,-9.7,41,11,25.0,101.55,Clear
4/29/2012 10:00,5.5,-11.4,28,26,48.3,101.67,Clear
4/29/2012 11:00,6.2,-11.6,27,24,48.3,101.62,Clear
4/29/2012 12:00,7.4,-10.5,27,24,48.3,101.62,Clear
4/29/2012 13:00,8.4,-11.1,24,32,48.3,101.64,Clear
4/29/2012 14:00,8.7,-11.7,22,22,48.3,101.65,Clear
4/29/2012 15:00,9.0,-12.0,21,32,48.3,101.63,Clear
4/29/2012 17:00,9.0,-11.5,22,30,48.3,101.72,Clear
4/29/2012 18:00,8.1,-11.9,23,28,48.3,101.77,Clear
4/29/2012 19:00,6.9,-11.7,25,20,48.3,101.82,Clear
4/29/2012 22:00,5.1,-10.7,31,15,25.0,102.05,Clear
4/29/2012 23:00,4.1,-10.3,34,13,25.0,102.09,Clear
4/30/2012 0:00,3.3,-10.3,36,9,25.0,102.06,Clear
4/30/2012 1:00,2.2,-9.7,41,6,25.0,102.12,Clear
4/30/2012 2:00,3.2,-10.4,36,0,25.0,102.09,Clear
4/30/2012 3:00,2.4,-9.2,42,0,25.0,102.09,Clear
4/30/2012 4:00,0.7,-9.0,48,4,25.0,102.14,Clear
5/5/2012 16:00,16.0,-2.4,28,17,48.3,101.51,Clear
5/5/2012 17:00,15.9,-1.8,30,9,48.3,101.53,Clear
5/6/2012 23:00,11.1,-2.1,40,0,25.0,101.57,Clear
5/7/2012 0:00,9.9,-1.6,45,0,25.0,101.57,Clear
5/7/2012 1:00,6.9,0.3,63,0,25.0,101.55,Clear
5/7/2012 2:00,5.2,-0.8,65,4,25.0,101.56,Clear
5/7/2012 3:00,4.6,-0.4,70,4,25.0,101.55,Clear
5/7/2012 4:00,5.1,0.6,73,0,25.0,101.61,Clear
5/7/2012 5:00,5.7,0.4,69,4,48.3,101.6,Clear
5/7/2012 6:00,8.2,3.3,71,6,48.3,101.63,Clear
5/7/2012 7:00,12.3,0.6,45,4,48.3,101.64,Clear
5/7/2012 8:00,14.0,1.0,41,7,48.3,101.67,Clear
5/7/2012 9:00,16.0,-3.0,27,7,48.3,101.68,Clear
5/7/2012 10:00,17.1,-5.9,20,13,48.3,101.67,Clear
5/7/2012 21:00,18.7,-4.1,21,15,25.0,100.87,Clear
5/11/2012 18:00,16.8,-2.7,26,22,48.3,100.87,Clear
5/11/2012 19:00,15.1,-2.9,29,13,48.3,100.95,Clear
5/11/2012 20:00,12.1,-2.1,37,11,25.0,101.04,Clear
5/11/2012 21:00,10.2,-2.1,42,9,25.0,101.1,Clear
5/11/2012 22:00,7.7,-1.2,53,9,25.0,101.15,Clear
5/11/2012 23:00,7.8,-0.9,54,9,25.0,101.19,Clear
5/12/2012 0:00,7.1,-0.6,58,9,25.0,101.19,Clear
5/12/2012 1:00,9.8,-1.1,47,7,25.0,101.22,Clear
5/12/2012 2:00,8.5,-1.0,51,0,25.0,101.23,Clear
5/12/2012 3:00,7.0,-0.5,59,4,25.0,101.28,Clear
5/12/2012 4:00,7.9,-1.0,53,11,25.0,101.35,Clear
5/12/2012 5:00,7.3,-1.4,54,6,48.3,101.37,Clear
5/12/2012 6:00,9.4,-0.5,50,7,48.3,101.42,Clear
5/12/2012 7:00,11.1,2.3,55,11,48.3,101.45,Clear
5/12/2012 8:00,12.9,2.4,49,11,48.3,101.46,Clear
5/12/2012 9:00,14.6,4.5,51,13,48.3,101.43,Clear
5/12/2012 10:00,16.7,4.6,45,15,48.3,101.41,Clear
5/13/2012 18:00,19.7,5.1,38,17,48.3,101.47,Clear
5/13/2012 21:00,13.4,6.5,63,7,25.0,101.54,Clear
5/13/2012 22:00,12.7,6.4,65,7,25.0,101.54,Clear
5/13/2012 23:00,13.3,6.6,64,0,25.0,101.54,Clear
5/14/2012 0:00,11.8,6.8,71,6,25.0,101.53,Clear
5/14/2012 1:00,12.8,7.1,68,6,25.0,101.51,Clear
5/14/2012 2:00,12.0,6.9,71,4,25.0,101.5,Clear
5/14/2012 3:00,12.0,6.9,71,0,25.0,101.5,Clear
5/15/2012 22:00,15.9,13.6,86,11,25.0,100.75,Clear
5/15/2012 23:00,15.4,13.2,87,11,25.0,100.74,Clear
5/16/2012 0:00,14.6,12.6,88,4,25.0,100.71,Clear
5/16/2012 1:00,13.9,12.0,88,6,25.0,100.66,Clear
5/16/2012 2:00,13.9,12.0,88,6,25.0,100.6,Clear
5/16/2012 3:00,13.3,11.4,88,0,25.0,100.58,Clear
5/17/2012 2:00,8.3,1.6,63,15,25.0,101.07,Clear
5/17/2012 3:00,7.3,1.6,67,15,25.0,101.16,Clear
5/17/2012 4:00,6.6,1.4,69,9,48.3,101.24,Clear
5/17/2012 5:00,6.0,1.0,70,11,48.3,101.32,Clear
5/17/2012 6:00,8.5,1.9,63,9,48.3,101.4,Clear
5/17/2012 18:00,15.1,0.4,37,20,48.3,101.5,Clear
5/17/2012 19:00,14.1,0.4,39,13,48.3,101.54,Clear
5/17/2012 21:00,12.4,1.4,47,6,25.0,101.64,Clear
5/17/2012 22:00,10.1,2.1,58,0,25.0,101.64,Clear
5/17/2012 23:00,9.9,3.8,66,7,25.0,101.7,Clear
5/18/2012 1:00,9.9,2.4,60,7,25.0,101.73,Clear
5/18/2012 2:00,9.2,2.3,62,9,25.0,101.75,Clear
5/18/2012 3:00,8.6,2.0,63,11,25.0,101.77,Clear
5/18/2012 4:00,8.6,1.5,61,9,48.3,101.77,Clear
5/18/2012 21:00,14.4,5.3,54,6,25.0,101.62,Clear
5/19/2012 22:00,21.9,6.4,37,7,25.0,101.61,Clear
5/19/2012 23:00,18.2,8.8,54,4,25.0,101.62,Clear
5/20/2012 0:00,18.3,7.8,50,0,25.0,101.64,Clear
5/20/2012 1:00,16.9,8.4,57,6,25.0,101.64,Clear
5/20/2012 2:00,16.1,8.6,61,6,25.0,101.67,Clear
5/20/2012 3:00,16.8,8.6,58,9,25.0,101.7,Clear
5/23/2012 0:00,13.1,10.4,84,0,25.0,100.82,Clear
5/23/2012 20:00,20.4,10.9,54,9,24.1,101.16,Clear
5/23/2012 21:00,20.4,10.6,53,9,25.0,101.19,Clear
5/23/2012 22:00,19.6,10.3,55,7,25.0,101.21,Clear
5/23/2012 23:00,18.9,10.3,57,4,25.0,101.25,Clear
5/24/2012 0:00,16.4,10.4,68,0,25.0,101.28,Clear
5/24/2012 1:00,15.0,10.6,75,4,25.0,101.29,Clear
5/24/2012 2:00,12.6,9.7,82,6,25.0,101.31,Clear
5/24/2012 3:00,14.5,11.2,81,6,25.0,101.3,Clear
5/24/2012 4:00,14.0,10.7,80,9,24.1,101.32,Clear
5/24/2012 10:00,24.6,15.2,56,0,48.3,101.46,Clear
5/24/2012 11:00,26.1,16.7,56,9,24.1,101.44,Clear
5/24/2012 20:00,23.1,16.1,65,19,24.1,101.3,Clear
5/24/2012 21:00,22.4,15.9,67,19,25.0,101.31,Clear
5/24/2012 22:00,21.9,15.5,67,22,25.0,101.35,Clear
5/24/2012 23:00,21.1,15.2,69,19,25.0,101.39,Clear
5/25/2012 0:00,20.7,15.3,71,13,25.0,101.43,Clear
5/25/2012 1:00,19.7,15.6,77,15,25.0,101.4,Clear
5/25/2012 2:00,19.4,15.6,79,15,25.0,101.41,Clear
5/25/2012 9:00,23.3,16.1,64,20,24.1,101.29,Clear
5/25/2012 23:00,21.3,15.4,69,17,25.0,100.96,Clear
5/26/2012 0:00,19.8,14.8,73,9,25.0,101.0,Clear
5/26/2012 1:00,19.3,14.0,71,13,25.0,101.09,Clear
5/26/2012 2:00,18.6,12.3,67,11,25.0,101.16,Clear
5/26/2012 3:00,17.1,10.5,65,13,25.0,101.21,Clear
5/26/2012 4:00,16.4,10.1,66,9,25.0,101.28,Clear
5/26/2012 6:00,17.1,10.0,63,9,48.3,101.37,Clear
5/26/2012 7:00,18.1,10.8,62,9,48.3,101.51,Clear
5/26/2012 8:00,19.4,12.2,63,6,48.3,101.56,Clear
5/26/2012 9:00,21.1,12.7,59,9,24.1,101.56,Clear
5/26/2012 11:00,22.6,12.5,53,0,16.1,101.6,Clear
5/27/2012 0:00,15.7,7.1,57,6,25.0,101.76,Clear
5/27/2012 1:00,14.6,7.4,62,9,25.0,101.77,Clear
5/30/2012 9:00,20.5,10.0,51,20,48.3,100.08,Clear
5/30/2012 11:00,22.1,9.6,45,17,24.1,100.08,Clear
5/30/2012 13:00,23.5,8.1,37,30,48.3,100.05,Clear
5/30/2012 14:00,23.5,8.5,38,32,48.3,100.04,Clear
5/30/2012 16:00,23.7,8.3,37,15,48.3,100.0,Clear
5/30/2012 17:00,23.1,8.4,39,24,48.3,100.04,Clear
5/31/2012 21:00,12.8,4.2,56,9,25.0,101.05,Clear
5/31/2012 22:00,12.5,4.4,58,7,25.0,101.13,Clear
5/31/2012 23:00,12.8,4.4,57,7,25.0,101.18,Clear
6/1/2012 0:00,11.6,3.8,59,6,25.0,101.21,Clear
6/1/2012 1:00,11.3,3.6,59,7,25.0,101.24,Clear
6/5/2012 9:00,17.4,6.9,50,19,48.3,101.01,Clear
6/7/2012 2:00,12.8,9.4,80,11,25.0,101.04,Clear
6/7/2012 3:00,12.3,8.9,80,17,25.0,101.02,Clear
6/8/2012 1:00,15.7,12.9,83,7,25.0,100.65,Clear
6/8/2012 2:00,15.3,12.9,86,11,25.0,100.6,Clear
6/8/2012 21:00,14.1,8.3,68,9,25.0,100.41,Clear
6/8/2012 22:00,13.5,7.8,68,6,25.0,100.48,Clear
6/8/2012 23:00,12.0,7.6,74,9,25.0,100.5,Clear
6/9/2012 0:00,12.8,8.0,73,6,25.0,100.51,Clear
6/9/2012 1:00,12.9,8.0,72,0,25.0,100.53,Clear
6/9/2012 2:00,12.2,7.8,74,0,25.0,100.54,Clear
6/9/2012 3:00,11.5,7.3,75,0,25.0,100.56,Clear
6/9/2012 22:00,17.0,6.6,50,4,25.0,100.93,Clear
6/10/2012 1:00,15.6,9.3,66,4,25.0,101.07,Clear
6/10/2012 2:00,13.7,9.9,78,0,25.0,101.08,Clear
6/10/2012 4:00,12.4,10.3,87,4,25.0,101.15,Clear
6/10/2012 21:00,22.8,8.4,40,7,25.0,101.51,Clear
6/10/2012 23:00,23.0,8.9,41,11,25.0,101.5,Clear
6/11/2012 0:00,21.7,9.0,44,6,25.0,101.49,Clear
6/13/2012 19:00,20.0,8.5,47,17,48.3,101.57,Clear
6/13/2012 20:00,17.6,8.0,53,11,48.3,101.62,Clear
6/13/2012 21:00,15.1,8.1,63,7,25.0,101.7,Clear
6/13/2012 22:00,14.6,7.9,64,11,25.0,101.74,Clear
6/13/2012 23:00,15.2,6.2,55,11,25.0,101.79,Clear
6/14/2012 0:00,14.5,5.4,54,11,25.0,101.85,Clear
6/14/2012 1:00,13.4,5.2,58,9,25.0,101.88,Clear
6/14/2012 2:00,13.0,5.4,60,9,25.0,101.93,Clear
6/14/2012 3:00,12.3,5.3,62,13,25.0,101.96,Clear
6/14/2012 4:00,12.4,4.9,60,15,48.3,102.04,Clear
6/14/2012 5:00,12.4,5.7,64,9,48.3,102.14,Clear
6/14/2012 6:00,14.7,6.3,57,9,48.3,102.2,Clear
6/14/2012 7:00,16.5,7.5,55,13,48.3,102.28,Clear
6/14/2012 8:00,18.5,7.9,50,11,48.3,102.33,Clear
6/14/2012 9:00,20.0,5.5,39,19,48.3,102.32,Clear
6/14/2012 10:00,20.0,3.8,34,17,48.3,102.31,Clear
6/14/2012 11:00,21.2,6.5,38,9,48.3,102.27,Clear
6/14/2012 12:00,21.3,4.7,34,24,48.3,102.26,Clear
6/14/2012 13:00,22.2,5.5,34,19,48.3,102.22,Clear
6/14/2012 14:00,22.4,5.5,33,15,48.3,102.17,Clear
6/14/2012 15:00,22.9,6.7,35,11,48.3,102.12,Clear
6/14/2012 16:00,22.5,6.9,36,7,48.3,102.15,Clear
6/14/2012 17:00,22.9,6.9,36,15,48.3,102.17,Clear
6/14/2012 18:00,22.7,7.5,38,17,48.3,102.16,Clear
6/14/2012 19:00,22.5,6.5,36,13,48.3,102.17,Clear
6/14/2012 20:00,21.7,5.7,35,15,48.3,102.16,Clear
6/14/2012 21:00,21.0,6.0,38,11,25.0,102.16,Clear
6/14/2012 22:00,20.2,6.0,39,9,25.0,102.2,Clear
6/14/2012 23:00,19.6,5.8,40,6,25.0,102.21,Clear
6/15/2012 0:00,18.9,5.5,41,6,25.0,102.18,Clear
6/15/2012 1:00,17.1,6.1,48,6,25.0,102.17,Clear
6/15/2012 2:00,14.2,7.9,66,13,25.0,102.19,Clear
6/15/2012 3:00,13.8,9.1,73,13,25.0,102.17,Clear
6/15/2012 4:00,13.0,9.0,77,15,24.1,102.19,Clear
6/15/2012 5:00,13.3,8.9,75,15,48.3,102.27,Clear
6/15/2012 6:00,15.6,8.5,63,17,48.3,102.32,Clear
6/15/2012 7:00,16.8,8.8,59,19,48.3,102.38,Clear
6/15/2012 23:00,20.1,9.5,50,11,25.0,102.06,Clear
6/16/2012 0:00,17.5,9.9,61,9,25.0,102.05,Clear
6/16/2012 2:00,15.3,10.3,72,13,25.0,102.03,Clear
6/16/2012 21:00,20.8,12.3,58,0,25.0,101.6,Clear
6/17/2012 3:00,18.4,13.7,74,13,25.0,101.45,Clear
6/19/2012 2:00,19.1,14.3,74,9,25.0,101.11,Clear
6/19/2012 3:00,18.3,14.1,76,9,25.0,101.12,Clear
6/20/2012 2:00,24.1,18.3,70,24,25.0,100.88,Clear
6/20/2012 13:00,29.7,20.0,56,19,24.1,100.91,Clear
6/20/2012 14:00,31.7,20.4,51,17,24.1,100.83,Clear
6/20/2012 22:00,28.1,20.2,62,24,25.0,100.57,Clear
6/21/2012 1:00,25.9,19.6,68,22,25.0,100.6,Clear
6/21/2012 10:00,29.4,19.3,55,17,24.1,100.47,Clear
6/21/2012 18:00,31.1,18.5,47,22,24.1,100.06,Clear
6/21/2012 19:00,30.3,17.3,46,30,24.1,100.08,Clear
6/21/2012 23:00,26.7,17.7,58,17,25.0,100.09,Clear
6/22/2012 0:00,25.8,18.1,63,9,25.0,100.07,Clear
6/23/2012 20:00,23.5,5.4,31,6,48.3,100.88,Clear
6/23/2012 21:00,20.1,7.3,43,0,25.0,100.95,Clear
6/23/2012 23:00,18.8,8.5,51,0,25.0,101.01,Clear
6/24/2012 0:00,18.3,8.4,52,0,25.0,101.0,Clear
6/24/2012 1:00,17.6,8.7,56,6,25.0,101.02,Clear
6/24/2012 2:00,14.1,8.7,70,4,25.0,101.01,Clear
6/24/2012 3:00,14.9,9.1,68,0,25.0,101.02,Clear
6/24/2012 4:00,14.4,9.0,70,11,48.3,101.04,Clear
6/24/2012 5:00,14.0,9.2,73,6,48.3,101.04,Clear
6/24/2012 6:00,17.8,10.5,62,4,48.3,101.04,Clear
6/24/2012 7:00,20.0,12.2,61,7,48.3,101.03,Clear
6/24/2012 8:00,22.2,10.6,48,7,48.3,101.03,Clear
6/24/2012 9:00,23.2,12.7,52,11,48.3,101.0,Clear
6/24/2012 10:00,24.3,13.0,49,15,48.3,100.97,Clear
6/29/2012 10:00,25.5,18.3,64,26,48.3,99.52,Clear
6/30/2012 0:00,23.1,11.9,49,20,25.0,99.63,Clear
6/30/2012 1:00,22.6,11.4,49,15,25.0,99.68,Clear
6/30/2012 2:00,22.0,11.5,51,17,25.0,99.67,Clear
6/30/2012 3:00,21.2,12.3,57,17,25.0,99.66,Clear
6/30/2012 4:00,20.5,13.0,62,20,48.3,99.7,Clear
7/3/2012 1:00,16.7,10.5,67,4,25.0,100.84,Clear
7/3/2012 2:00,17.2,11.1,67,4,25.0,100.83,Clear
7/3/2012 3:00,16.9,10.4,66,0,25.0,100.83,Clear
7/3/2012 4:00,14.3,10.5,78,6,24.1,100.89,Clear
7/3/2012 5:00,17.6,10.8,64,6,48.3,100.84,Clear
7/3/2012 6:00,18.5,11.1,62,9,48.3,100.98,Clear
7/3/2012 7:00,20.3,10.3,53,6,48.3,100.97,Clear
7/3/2012 8:00,21.5,10.9,51,0,48.3,100.96,Clear
7/4/2012 22:00,21.1,16.9,77,17,25.0,100.31,Clear
7/4/2012 23:00,19.1,15.9,82,11,25.0,100.37,Clear
7/5/2012 0:00,17.9,14.8,82,9,25.0,100.38,Clear
7/5/2012 20:00,23.4,17.2,68,13,48.3,100.69,Clear
7/5/2012 21:00,23.1,17.1,69,9,25.0,100.76,Clear
7/5/2012 22:00,21.9,17.6,77,9,25.0,100.76,Clear
7/5/2012 23:00,20.8,17.6,82,7,25.0,100.74,Clear
7/6/2012 2:00,19.9,16.9,83,4,25.0,100.74,Clear
7/6/2012 3:00,19.1,16.1,83,7,25.0,100.76,Clear
7/6/2012 4:00,19.3,16.2,82,7,25.0,100.75,Clear
7/8/2012 4:00,16.3,12.2,77,7,24.1,100.7,Clear
7/8/2012 9:00,20.6,8.5,46,20,48.3,100.81,Clear
7/8/2012 10:00,21.6,7.8,41,22,48.3,100.82,Clear
7/8/2012 11:00,22.0,7.1,38,19,48.3,100.81,Clear
7/8/2012 12:00,23.0,7.8,38,24,48.3,100.79,Clear
7/8/2012 20:00,20.3,8.4,46,11,48.3,100.74,Clear
7/8/2012 21:00,19.8,8.0,46,9,25.0,100.8,Clear
7/8/2012 22:00,17.9,8.1,53,7,25.0,100.81,Clear
7/8/2012 23:00,17.1,8.4,57,9,25.0,100.85,Clear
7/9/2012 0:00,16.0,8.9,63,13,25.0,100.83,Clear
7/9/2012 1:00,14.4,9.0,70,9,25.0,100.84,Clear
7/9/2012 2:00,14.9,9.1,68,9,25.0,100.86,Clear
7/9/2012 7:00,17.8,8.7,55,11,48.3,101.1,Clear
7/9/2012 8:00,18.2,8.1,52,11,48.3,101.13,Clear
7/9/2012 9:00,19.2,7.9,48,9,48.3,101.13,Clear
7/9/2012 10:00,19.9,7.5,45,17,48.3,101.12,Clear
7/9/2012 11:00,21.4,7.9,42,20,48.3,101.09,Clear
7/9/2012 12:00,22.2,7.1,38,13,48.3,101.07,Clear
7/9/2012 20:00,19.5,7.9,47,7,48.3,101.02,Clear
7/9/2012 22:00,17.6,9.0,57,4,25.0,101.04,Clear
7/10/2012 0:00,18.2,11.2,64,7,25.0,101.04,Clear
7/10/2012 1:00,18.7,9.4,55,13,25.0,101.04,Clear
7/10/2012 2:00,17.0,9.8,63,7,25.0,101.06,Clear
7/10/2012 3:00,16.6,11.0,69,9,25.0,101.06,Clear
7/10/2012 4:00,16.4,12.4,77,11,24.1,101.11,Clear
7/10/2012 20:00,21.5,9.5,46,11,48.3,101.26,Clear
7/10/2012 22:00,20.2,6.6,41,7,25.0,101.37,Clear
7/10/2012 23:00,17.7,7.8,52,9,25.0,101.43,Clear
7/11/2012 0:00,18.5,6.5,45,7,25.0,101.45,Clear
7/11/2012 1:00,15.5,8.2,62,0,25.0,101.5,Clear
7/11/2012 2:00,14.9,8.0,63,4,25.0,101.52,Clear
7/11/2012 3:00,15.1,6.0,54,4,25.0,101.55,Clear
7/11/2012 4:00,13.5,8.6,72,4,24.1,101.6,Clear
7/11/2012 5:00,13.1,8.7,75,4,48.3,101.66,Clear
7/11/2012 6:00,15.4,9.9,70,6,48.3,101.71,Clear
7/11/2012 7:00,18.2,9.6,57,4,48.3,101.73,Clear
7/11/2012 8:00,20.4,8.9,48,4,48.3,101.75,Clear
7/11/2012 9:00,22.5,9.5,44,9,48.3,101.73,Clear
7/11/2012 23:00,22.8,11.8,50,17,25.0,101.5,Clear
7/12/2012 0:00,21.8,12.8,57,11,25.0,101.5,Clear
7/12/2012 1:00,18.5,13.3,72,6,25.0,101.5,Clear
7/12/2012 2:00,20.6,12.9,61,6,25.0,101.49,Clear
7/12/2012 3:00,20.6,12.5,60,11,25.0,101.5,Clear
7/13/2012 4:00,20.8,14.6,68,13,24.1,101.49,Clear
7/13/2012 15:00,31.9,12.3,30,22,48.3,101.46,Clear
7/13/2012 16:00,31.6,11.8,30,22,48.3,101.4,Clear
7/13/2012 18:00,30.9,14.5,37,13,48.3,101.33,Clear
7/13/2012 22:00,26.6,16.4,54,9,25.0,101.37,Clear
7/13/2012 23:00,26.0,16.2,55,7,25.0,101.38,Clear
7/14/2012 0:00,25.2,16.6,59,11,25.0,101.38,Clear
7/14/2012 1:00,25.0,15.4,55,15,25.0,101.37,Clear
7/14/2012 2:00,24.2,15.6,59,11,25.0,101.34,Clear
7/14/2012 3:00,23.3,15.3,61,13,25.0,101.35,Clear
7/14/2012 4:00,23.1,15.4,62,15,24.1,101.4,Clear
7/14/2012 21:00,28.3,18.8,56,9,25.0,101.28,Clear
7/14/2012 22:00,27.8,18.3,56,11,25.0,101.29,Clear
7/14/2012 23:00,26.0,19.2,66,9,25.0,101.31,Clear
7/15/2012 0:00,25.5,18.9,67,7,25.0,101.32,Clear
7/15/2012 1:00,25.2,18.7,67,9,25.0,101.29,Clear
7/15/2012 3:00,24.1,18.6,71,11,25.0,101.26,Clear
7/18/2012 3:00,19.3,17.2,88,9,25.0,100.33,Clear
7/18/2012 21:00,19.4,9.9,54,11,25.0,101.06,Clear
7/18/2012 22:00,17.5,10.3,63,11,25.0,101.06,Clear
7/18/2012 23:00,15.7,10.7,72,7,25.0,101.09,Clear
7/19/2012 0:00,14.4,10.9,79,4,25.0,101.14,Clear
7/19/2012 1:00,14.2,11.1,82,7,25.0,101.11,Clear
7/19/2012 2:00,14.6,10.6,77,6,25.0,101.11,Clear
7/19/2012 3:00,13.8,10.5,80,7,25.0,101.09,Clear
7/19/2012 7:00,16.7,9.7,63,11,48.3,101.27,Clear
7/20/2012 0:00,17.2,9.3,60,11,25.0,101.45,Clear
7/20/2012 1:00,16.0,9.5,65,15,25.0,101.48,Clear
7/20/2012 2:00,14.6,9.8,73,11,25.0,101.46,Clear
7/20/2012 3:00,14.2,9.8,75,11,25.0,101.44,Clear
7/20/2012 4:00,14.4,9.3,71,11,48.3,101.49,Clear
7/20/2012 5:00,14.5,9.3,71,13,48.3,101.51,Clear
7/20/2012 21:00,19.6,12.0,61,0,25.0,101.36,Clear
7/20/2012 22:00,18.1,12.3,69,0,25.0,101.37,Clear
7/20/2012 23:00,18.2,12.3,68,0,25.0,101.36,Clear
7/21/2012 0:00,17.2,12.6,74,4,25.0,101.4,Clear
7/21/2012 1:00,17.2,12.4,73,0,25.0,101.4,Clear
7/21/2012 2:00,15.1,12.4,84,0,25.0,101.39,Clear
7/21/2012 3:00,14.0,12.3,89,0,25.0,101.37,Clear
7/21/2012 4:00,14.6,12.9,90,0,24.1,101.4,Clear
7/21/2012 5:00,14.5,12.5,88,4,48.3,101.38,Clear
7/21/2012 6:00,16.9,13.7,81,4,48.3,101.4,Clear
7/21/2012 7:00,20.0,15.0,73,0,48.3,101.43,Clear
7/22/2012 22:00,25.8,17.4,60,11,25.0,101.01,Clear
7/24/2012 23:00,18.0,12.5,70,17,25.0,100.5,Clear
7/25/2012 0:00,16.6,12.4,76,11,25.0,100.55,Clear
7/25/2012 1:00,15.8,12.0,78,4,25.0,100.56,Clear
7/25/2012 2:00,15.4,12.5,83,9,25.0,100.59,Clear
7/25/2012 3:00,15.4,12.5,83,11,25.0,100.65,Clear
7/25/2012 4:00,14.5,12.2,86,7,25.0,100.69,Clear
7/25/2012 5:00,13.8,12.1,89,7,24.1,100.71,Clear
7/25/2012 6:00,16.2,13.2,82,11,24.1,100.76,Clear
7/25/2012 7:00,17.5,12.2,71,13,24.1,100.81,Clear
7/25/2012 8:00,18.8,12.8,68,13,24.1,100.8,Clear
7/25/2012 9:00,19.6,12.9,65,11,48.3,100.79,Clear
7/25/2012 10:00,21.1,12.6,58,11,48.3,100.88,Clear
7/29/2012 0:00,18.5,13.7,74,9,25.0,101.18,Clear
7/29/2012 1:00,18.4,13.7,74,13,25.0,101.16,Clear
7/29/2012 2:00,17.7,12.9,73,15,25.0,101.16,Clear
7/29/2012 23:00,21.2,18.6,85,4,25.0,101.18,Clear
7/30/2012 2:00,20.6,18.6,88,6,25.0,101.15,Clear
7/30/2012 3:00,20.5,18.3,87,4,25.0,101.13,Clear
7/30/2012 8:00,22.4,16.7,70,7,48.3,101.31,Clear
7/30/2012 21:00,24.3,16.9,63,11,25.0,101.0,Clear
7/30/2012 22:00,23.8,17.6,68,9,25.0,101.0,Clear
7/31/2012 3:00,20.1,16.1,78,13,25.0,101.02,Clear
7/31/2012 7:00,22.6,18.2,76,9,48.3,101.03,Clear
7/31/2012 8:00,24.2,18.5,71,9,48.3,101.02,Clear
8/1/2012 1:00,21.0,19.6,92,4,25.0,100.54,Clear
8/2/2012 5:00,21.3,19.6,90,7,24.1,100.55,Clear
8/2/2012 6:00,21.7,19.6,88,15,48.3,100.55,Clear
8/3/2012 8:00,24.1,18.5,71,13,24.1,100.87,Clear
8/3/2012 17:00,28.0,16.0,48,20,48.3,101.14,Clear
8/3/2012 18:00,27.2,16.1,51,11,48.3,101.18,Clear
8/3/2012 19:00,25.5,15.6,54,7,48.3,101.24,Clear
8/3/2012 20:00,23.9,15.7,60,6,24.1,101.31,Clear
8/3/2012 21:00,22.0,15.9,68,6,25.0,101.39,Clear
8/3/2012 22:00,23.3,15.3,61,9,25.0,101.42,Clear
8/3/2012 23:00,23.1,15.2,61,4,25.0,101.49,Clear
8/4/2012 0:00,21.3,15.3,69,9,25.0,101.51,Clear
8/4/2012 11:00,28.3,18.0,54,17,24.1,101.69,Clear
8/4/2012 12:00,30.1,19.2,52,9,25.0,101.62,Clear
8/4/2012 13:00,31.2,18.1,46,11,24.1,101.56,Clear
8/4/2012 14:00,32.0,18.3,44,17,24.1,101.48,Clear
8/4/2012 15:00,32.8,18.8,44,17,24.1,101.39,Clear
8/4/2012 16:00,32.5,18.5,44,15,24.1,101.34,Clear
8/4/2012 17:00,32.5,19.8,47,13,24.1,101.32,Clear
8/4/2012 20:00,29.2,18.7,53,19,24.1,101.23,Clear
8/4/2012 23:00,26.2,18.6,63,17,25.0,101.27,Clear
8/5/2012 0:00,25.7,19.0,67,19,25.0,101.24,Clear
8/5/2012 1:00,25.1,19.2,70,19,25.0,101.19,Clear
8/5/2012 2:00,24.2,19.3,74,19,25.0,101.16,Clear
8/5/2012 23:00,23.1,17.4,70,30,25.0,100.58,Clear
8/6/2012 0:00,21.7,13.7,60,24,25.0,100.67,Clear
8/6/2012 2:00,19.6,13.7,69,22,25.0,100.77,Clear
8/6/2012 3:00,18.7,13.2,70,22,25.0,100.79,Clear
8/6/2012 4:00,17.7,13.3,75,13,25.0,100.86,Clear
8/6/2012 5:00,16.6,13.3,81,9,48.3,100.95,Clear
8/6/2012 6:00,18.0,13.8,76,13,48.3,101.01,Clear
8/6/2012 19:00,21.6,12.8,57,9,48.3,101.02,Clear
8/6/2012 20:00,22.1,13.5,58,9,25.0,101.03,Clear
8/6/2012 21:00,21.7,14.5,64,9,25.0,101.03,Clear
8/6/2012 22:00,20.1,15.6,75,13,25.0,101.04,Clear
8/6/2012 23:00,20.6,15.1,71,11,25.0,101.05,Clear
8/7/2012 0:00,19.6,16.0,80,13,25.0,101.04,Clear
8/7/2012 1:00,19.3,15.6,79,17,25.0,101.02,Clear
8/7/2012 2:00,18.9,14.8,77,19,25.0,100.99,Clear
8/7/2012 3:00,18.2,15.3,83,13,25.0,100.96,Clear
8/7/2012 4:00,18.5,15.5,83,11,25.0,100.95,Clear
8/7/2012 5:00,16.6,15.0,90,7,48.3,100.99,Clear
8/7/2012 6:00,17.9,15.3,85,6,48.3,101.02,Clear
8/8/2012 3:00,17.4,17.1,98,4,12.9,100.92,Clear
8/8/2012 4:00,17.2,16.9,98,4,16.1,100.97,Clear
8/8/2012 6:00,18.1,17.3,95,0,24.1,101.03,Clear
8/8/2012 7:00,19.3,17.4,89,6,48.3,101.09,Clear
8/13/2012 0:00,21.3,17.3,78,22,25.0,100.68,Clear
8/13/2012 1:00,20.9,17.5,81,15,25.0,100.68,Clear
8/15/2012 21:00,20.4,15.9,75,6,25.0,100.7,Clear
8/16/2012 0:00,18.9,16.2,84,9,25.0,100.76,Clear
8/16/2012 18:00,24.9,14.4,52,7,24.1,100.49,Clear
8/17/2012 1:00,21.1,17.3,79,11,25.0,100.47,Clear
8/17/2012 2:00,18.9,16.5,86,4,25.0,100.44,Clear
8/17/2012 3:00,18.7,16.3,86,0,25.0,100.37,Clear
8/17/2012 5:00,17.6,15.3,86,7,25.0,100.3,Clear
8/18/2012 1:00,17.7,11.3,66,9,25.0,100.51,Clear
8/18/2012 20:00,18.6,7.9,50,7,25.0,100.88,Clear
8/18/2012 21:00,15.9,8.6,62,6,25.0,100.88,Clear
8/18/2012 23:00,16.6,10.2,66,0,25.0,100.91,Clear
8/19/2012 0:00,16.0,11.5,75,9,25.0,100.96,Clear
8/19/2012 1:00,16.6,9.9,65,13,25.0,100.98,Clear
8/19/2012 2:00,16.3,11.2,72,13,25.0,100.96,Clear
8/19/2012 3:00,15.8,11.2,74,11,25.0,100.94,Clear
8/19/2012 4:00,13.3,10.9,85,7,25.0,100.94,Clear
8/19/2012 8:00,17.5,13.3,76,15,48.3,101.06,Clear
8/19/2012 22:00,17.6,11.6,68,0,25.0,100.79,Clear
8/20/2012 2:00,15.3,13.5,89,0,25.0,100.75,Clear
8/20/2012 9:00,20.2,13.9,67,11,48.3,100.78,Clear
8/20/2012 16:00,24.4,10.4,41,13,24.1,100.56,Clear
8/20/2012 20:00,18.4,9.4,56,9,25.0,100.75,Clear
8/22/2012 15:00,25.7,10.9,39,20,48.3,101.33,Clear
8/22/2012 21:00,22.5,14.2,59,15,25.0,101.29,Clear
8/23/2012 7:00,20.3,15.9,76,19,24.1,101.37,Clear
8/23/2012 20:00,21.8,16.1,70,7,25.0,101.41,Clear
8/24/2012 8:00,20.7,13.0,61,7,24.1,101.8,Clear
8/25/2012 10:00,26.4,16.6,55,7,48.3,101.97,Clear
8/25/2012 13:00,30.1,16.7,45,11,48.3,101.84,Clear
8/25/2012 21:00,25.3,17.1,60,11,25.0,101.76,Clear
8/25/2012 22:00,23.9,17.3,67,9,25.0,101.8,Clear
8/25/2012 23:00,24.0,18.0,69,9,25.0,101.83,Clear
8/26/2012 0:00,22.1,18.0,78,11,25.0,101.85,Clear
8/26/2012 1:00,22.4,18.4,78,6,25.0,101.89,Clear
8/26/2012 2:00,23.4,16.9,67,7,25.0,101.9,Clear
8/26/2012 3:00,23.5,16.9,66,15,25.0,101.91,Clear
8/26/2012 4:00,23.2,16.9,68,7,25.0,101.95,Clear
8/26/2012 5:00,21.2,16.9,76,6,24.1,102.02,Clear
8/26/2012 6:00,20.9,17.2,79,0,24.1,102.06,Clear
8/26/2012 7:00,22.9,17.1,70,9,24.1,102.1,Clear
8/29/2012 0:00,12.0,8.2,78,7,25.0,101.06,Clear
8/29/2012 3:00,11.0,7.7,80,9,25.0,101.06,Clear
8/29/2012 4:00,10.5,7.6,82,7,25.0,101.06,Clear
8/29/2012 5:00,10.5,7.9,84,7,48.3,101.07,Clear
8/29/2012 6:00,12.0,8.9,81,9,48.3,101.1,Clear
8/29/2012 7:00,16.0,8.1,59,19,48.3,101.13,Clear
8/29/2012 8:00,18.0,7.4,50,20,48.3,101.13,Clear
8/29/2012 9:00,19.6,7.9,47,22,48.3,101.11,Clear
8/29/2012 10:00,20.7,8.1,44,20,48.3,101.09,Clear
8/29/2012 11:00,21.9,8.5,42,22,48.3,101.07,Clear
8/29/2012 13:00,23.5,7.9,37,32,48.3,100.98,Clear
8/29/2012 14:00,24.7,8.3,35,20,48.3,100.92,Clear
8/29/2012 18:00,22.5,6.9,36,19,48.3,100.87,Clear
8/29/2012 19:00,21.7,6.7,38,15,48.3,100.89,Clear
8/29/2012 20:00,19.7,7.1,44,9,25.0,100.92,Clear
8/29/2012 21:00,19.7,7.3,45,15,25.0,100.93,Clear
8/29/2012 22:00,19.5,8.7,50,22,25.0,100.93,Clear
8/29/2012 23:00,18.3,9.9,58,20,25.0,100.97,Clear
8/30/2012 0:00,17.5,10.6,64,19,25.0,100.96,Clear
8/30/2012 1:00,17.0,11.5,70,11,25.0,100.92,Clear
8/30/2012 4:00,15.1,11.8,81,15,25.0,100.96,Clear
8/31/2012 0:00,23.4,14.5,57,33,25.0,100.55,Clear
8/31/2012 23:00,20.8,12.9,61,11,25.0,100.84,Clear
9/1/2012 4:00,16.3,12.8,80,11,25.0,101.21,Clear
9/1/2012 9:00,20.4,8.8,47,15,48.3,101.59,Clear
9/1/2012 10:00,22.0,8.5,42,20,48.3,101.6,Clear
9/1/2012 12:00,23.2,7.0,35,13,48.3,101.57,Clear
9/1/2012 13:00,23.6,7.0,34,6,48.3,101.54,Clear
9/1/2012 14:00,23.5,6.7,34,7,48.3,101.47,Clear
9/1/2012 15:00,24.3,7.3,34,7,48.3,101.44,Clear
9/1/2012 16:00,24.2,7.0,33,4,48.3,101.43,Clear
9/1/2012 17:00,24.0,6.6,33,7,48.3,101.39,Clear
9/1/2012 18:00,22.7,8.4,40,9,48.3,101.41,Clear
9/1/2012 19:00,20.9,8.3,44,6,48.3,101.45,Clear
9/1/2012 20:00,18.8,9.9,56,11,25.0,101.46,Clear
9/1/2012 21:00,18.5,7.6,49,7,25.0,101.47,Clear
9/1/2012 22:00,17.5,9.2,58,6,25.0,101.46,Clear
9/2/2012 0:00,16.1,9.0,63,4,25.0,101.47,Clear
9/2/2012 1:00,14.0,9.3,73,4,25.0,101.47,Clear
9/2/2012 2:00,13.5,9.5,77,4,25.0,101.47,Clear
9/2/2012 20:00,21.2,8.5,44,9,25.0,101.52,Clear
9/2/2012 23:00,18.7,9.8,56,4,25.0,101.57,Clear
9/3/2012 0:00,17.5,10.2,62,7,25.0,101.6,Clear
9/3/2012 4:00,13.4,11.0,85,6,25.0,101.63,Clear
9/6/2012 20:00,22.5,16.8,70,11,25.0,100.47,Clear
9/7/2012 0:00,18.1,14.8,81,4,24.1,100.62,Clear
9/7/2012 1:00,18.7,14.5,77,4,25.0,100.62,Clear
9/7/2012 3:00,18.5,14.5,78,6,25.0,100.68,Clear
9/7/2012 4:00,18.3,14.2,77,6,25.0,100.68,Clear
9/9/2012 5:00,11.5,9.5,88,11,25.0,100.44,Clear
9/10/2012 20:00,10.9,5.7,70,7,25.0,101.54,Clear
9/10/2012 21:00,9.8,6.0,77,6,25.0,101.55,Clear
9/10/2012 22:00,9.7,5.9,77,7,25.0,101.56,Clear
9/10/2012 23:00,9.3,6.4,82,7,25.0,101.56,Clear
9/11/2012 0:00,8.4,6.2,86,9,25.0,101.57,Clear
9/11/2012 1:00,8.4,6.3,87,9,25.0,101.58,Clear
9/11/2012 2:00,8.4,6.9,90,9,25.0,101.6,Clear
9/11/2012 3:00,9.1,7.3,88,7,25.0,101.64,Clear
9/11/2012 4:00,9.2,6.8,85,4,25.0,101.7,Clear
9/11/2012 5:00,6.9,5.6,91,0,25.0,101.75,Clear
9/11/2012 21:00,19.1,12.9,67,15,25.0,101.76,Clear
9/11/2012 22:00,18.4,12.0,66,17,25.0,101.78,Clear
9/11/2012 23:00,17.8,11.9,68,15,25.0,101.8,Clear
9/12/2012 0:00,17.5,10.6,64,17,25.0,101.82,Clear
9/12/2012 1:00,17.2,9.9,62,11,25.0,101.85,Clear
9/12/2012 2:00,14.5,9.6,72,6,25.0,101.86,Clear
9/12/2012 3:00,13.2,9.9,80,4,25.0,101.9,Clear
9/12/2012 4:00,13.7,10.0,78,0,25.0,101.91,Clear
9/12/2012 5:00,13.1,10.7,85,6,25.0,101.96,Clear
9/12/2012 6:00,13.5,11.2,86,0,48.3,102.02,Clear
9/12/2012 7:00,15.8,11.8,77,9,48.3,102.02,Clear
9/12/2012 8:00,17.4,11.1,66,7,48.3,102.04,Clear
9/12/2012 9:00,19.6,11.9,61,7,48.3,102.05,Clear
9/12/2012 11:00,23.9,13.3,51,20,48.3,101.98,Clear
9/12/2012 21:00,22.2,13.2,57,11,25.0,101.91,Clear
9/13/2012 3:00,15.7,13.1,85,9,25.0,101.96,Clear
9/13/2012 4:00,15.5,12.8,84,11,25.0,101.96,Clear
9/13/2012 5:00,14.9,11.8,82,4,25.0,102.0,Clear
9/13/2012 20:00,23.2,15.7,63,11,25.0,101.74,Clear
9/13/2012 23:00,20.7,15.3,71,13,25.0,101.72,Clear
9/14/2012 0:00,19.5,15.5,78,9,25.0,101.72,Clear
9/14/2012 1:00,16.6,14.9,90,0,25.0,101.71,Clear
9/14/2012 2:00,18.2,14.8,81,4,25.0,101.69,Clear
9/14/2012 3:00,16.4,14.2,87,6,25.0,101.67,Clear
9/14/2012 4:00,15.9,13.7,87,9,25.0,101.66,Clear
9/15/2012 22:00,8.5,5.7,83,7,25.0,101.51,Clear
9/15/2012 23:00,7.9,5.6,85,9,25.0,101.5,Clear
9/16/2012 0:00,6.6,5.0,90,7,25.0,101.52,Clear
9/16/2012 1:00,6.1,5.2,94,9,25.0,101.49,Clear
9/16/2012 2:00,6.5,5.6,94,6,25.0,101.46,Clear
9/16/2012 3:00,6.7,5.6,93,7,25.0,101.44,Clear
9/16/2012 4:00,7.3,6.2,93,9,25.0,101.43,Clear
9/16/2012 5:00,4.9,4.6,98,9,25.0,101.45,Clear
9/16/2012 6:00,5.8,4.9,94,9,48.3,101.53,Clear
9/16/2012 7:00,8.7,6.5,86,9,48.3,101.55,Clear
9/16/2012 8:00,11.7,4.5,61,9,48.3,101.58,Clear
9/16/2012 15:00,16.7,3.6,42,19,48.3,101.25,Clear
9/16/2012 16:00,16.6,3.0,40,15,48.3,101.2,Clear
9/16/2012 17:00,16.6,3.6,42,20,48.3,101.17,Clear
9/16/2012 18:00,15.5,3.2,44,11,48.3,101.16,Clear
9/16/2012 20:00,12.5,4.6,59,6,25.0,101.18,Clear
9/16/2012 21:00,12.8,5.4,61,6,25.0,101.18,Clear
9/16/2012 22:00,13.1,5.4,60,6,25.0,101.2,Clear
9/16/2012 23:00,12.1,5.6,64,6,25.0,101.21,Clear
9/17/2012 0:00,11.5,8.6,82,4,25.0,101.2,Clear
9/17/2012 1:00,10.1,8.4,89,4,25.0,101.21,Clear
9/17/2012 2:00,10.1,7.8,86,6,25.0,101.18,Clear
9/17/2012 14:00,24.6,12.6,47,15,24.1,100.95,Clear
9/17/2012 15:00,25.2,10.8,40,15,24.1,100.9,Clear
9/17/2012 17:00,24.4,12.2,46,13,24.1,100.87,Clear
9/18/2012 2:00,16.6,12.1,75,9,25.0,100.75,Clear
9/19/2012 18:00,10.6,2.1,56,11,48.3,101.68,Clear
9/19/2012 19:00,10.0,2.5,60,4,25.0,101.75,Clear
9/19/2012 20:00,8.8,3.2,68,4,25.0,101.81,Clear
9/19/2012 21:00,9.5,2.7,62,0,25.0,101.83,Clear
9/19/2012 22:00,8.5,2.7,67,0,25.0,101.85,Clear
9/19/2012 23:00,9.8,3.1,63,4,25.0,101.88,Clear
9/20/2012 0:00,7.2,4.5,83,7,25.0,101.88,Clear
9/20/2012 1:00,8.4,4.0,74,6,25.0,101.92,Clear
9/20/2012 2:00,9.0,4.0,71,7,25.0,101.89,Clear
9/20/2012 3:00,8.0,4.8,80,4,25.0,101.91,Clear
9/20/2012 4:00,8.3,5.7,84,9,25.0,101.91,Clear
9/20/2012 5:00,7.7,6.5,92,6,25.0,101.95,Clear
9/20/2012 6:00,7.7,6.5,92,6,48.3,101.97,Clear
9/20/2012 7:00,9.6,6.9,83,9,48.3,101.95,Clear
9/20/2012 8:00,11.7,7.6,76,7,48.3,101.94,Clear
9/20/2012 9:00,12.8,7.6,71,15,48.3,101.85,Clear
9/20/2012 10:00,15.2,7.4,60,20,48.3,101.76,Clear
9/20/2012 11:00,16.2,6.9,54,19,48.3,101.65,Clear
9/20/2012 12:00,17.6,7.3,51,15,48.3,101.56,Clear
9/20/2012 15:00,19.1,7.5,47,20,48.3,101.39,Clear
9/20/2012 16:00,18.7,7.7,49,24,48.3,101.31,Clear
9/20/2012 17:00,18.0,7.9,52,26,48.3,101.31,Clear
9/20/2012 18:00,16.6,7.9,56,19,48.3,101.26,Clear
9/20/2012 19:00,16.2,7.9,58,24,25.0,101.27,Clear
9/20/2012 21:00,15.4,7.9,61,20,25.0,101.25,Clear
9/20/2012 22:00,13.4,8.5,72,15,25.0,101.25,Clear
9/24/2012 2:00,6.9,5.1,88,0,25.0,101.37,Clear
9/24/2012 3:00,5.7,4.7,93,0,25.0,101.38,Clear
9/25/2012 19:00,16.6,10.5,67,11,25.0,101.02,Clear
9/27/2012 3:00,6.3,4.9,91,9,25.0,101.63,Clear
9/27/2012 4:00,5.1,4.1,93,11,25.0,101.69,Clear
9/27/2012 5:00,6.0,4.6,91,7,25.0,101.76,Clear
9/27/2012 6:00,6.4,4.3,86,0,48.3,101.86,Clear
9/27/2012 7:00,7.5,5.3,86,0,48.3,101.91,Clear
9/27/2012 8:00,9.0,5.6,79,11,48.3,101.99,Clear
9/27/2012 19:00,10.6,4.4,65,0,25.0,102.0,Clear
9/27/2012 21:00,9.4,5.5,77,7,25.0,102.01,Clear
9/27/2012 22:00,9.3,4.8,73,4,25.0,101.99,Clear
9/27/2012 23:00,9.2,4.6,73,4,25.0,101.98,Clear
9/28/2012 0:00,9.2,4.0,70,6,25.0,101.96,Clear
9/28/2012 3:00,7.2,4.9,85,9,25.0,101.92,Clear
9/28/2012 4:00,6.0,5.3,95,9,25.0,101.91,Clear
10/2/2012 4:00,12.0,11.9,99,6,19.3,100.85,Clear
10/2/2012 22:00,14.2,12.9,92,4,25.0,101.28,Clear
10/2/2012 23:00,11.4,10.9,97,4,25.0,101.31,Clear
10/3/2012 0:00,11.9,11.7,99,4,25.0,101.3,Clear
10/3/2012 1:00,11.3,11.0,98,4,25.0,101.33,Clear
10/3/2012 2:00,11.3,11.2,99,7,25.0,101.32,Clear
10/3/2012 3:00,11.6,11.4,99,7,25.0,101.33,Clear
10/3/2012 4:00,11.5,11.2,98,7,25.0,101.37,Clear
10/5/2012 2:00,15.7,12.7,82,17,16.1,100.92,Clear
10/5/2012 3:00,14.7,12.6,87,17,19.3,100.94,Clear
10/5/2012 4:00,14.4,12.6,89,13,19.3,100.96,Clear
10/5/2012 5:00,13.8,12.6,92,17,19.3,100.96,Clear
10/7/2012 4:00,5.3,3.7,89,13,25.0,101.09,Clear
10/8/2012 3:00,5.1,2.9,86,0,25.0,101.52,Clear
10/8/2012 4:00,3.6,2.4,92,6,25.0,101.58,Clear
10/8/2012 5:00,2.8,2.6,99,0,25.0,101.62,Clear
10/8/2012 9:00,6.6,0.5,65,4,48.3,101.94,Clear
10/8/2012 22:00,8.0,2.0,66,4,25.0,102.08,Clear
10/8/2012 23:00,7.4,1.9,68,7,25.0,102.06,Clear
10/9/2012 0:00,5.8,2.6,80,6,25.0,102.06,Clear
10/9/2012 1:00,5.8,3.3,84,4,25.0,102.08,Clear
10/9/2012 2:00,5.9,3.4,84,6,25.0,102.06,Clear
10/9/2012 3:00,5.9,3.2,83,4,25.0,102.02,Clear
10/9/2012 4:00,4.3,2.7,89,7,25.0,102.04,Clear
10/9/2012 8:00,8.4,6.0,85,15,48.3,102.08,Clear
10/9/2012 9:00,10.3,6.4,77,15,48.3,102.06,Clear
10/9/2012 10:00,12.5,6.0,65,17,48.3,102.0,Clear
10/12/2012 18:00,4.0,-4.5,54,15,25.0,102.21,Clear
10/12/2012 19:00,2.5,-3.9,63,13,25.0,102.28,Clear
10/12/2012 20:00,1.2,-3.6,70,9,25.0,102.35,Clear
10/12/2012 21:00,0.7,-4.0,71,7,25.0,102.41,Clear
10/12/2012 22:00,0.0,-4.7,71,9,25.0,102.47,Clear
10/13/2012 5:00,-1.9,-3.9,86,0,25.0,102.53,Clear
10/16/2012 20:00,3.7,-0.3,75,7,25.0,100.63,Clear
10/16/2012 21:00,3.0,-0.5,78,11,25.0,100.66,Clear
10/16/2012 22:00,4.1,-0.4,72,7,25.0,100.73,Clear
10/16/2012 23:00,1.6,-0.5,86,7,25.0,100.75,Clear
10/17/2012 0:00,3.8,0.5,79,11,25.0,100.8,Clear
10/17/2012 1:00,2.8,0.6,85,9,25.0,100.86,Clear
10/17/2012 2:00,1.1,-1.2,85,7,25.0,100.91,Clear
10/17/2012 7:00,3.3,0.7,83,0,24.1,101.02,Clear
10/20/2012 19:00,11.6,5.9,68,20,25.0,100.04,Clear
10/22/2012 5:00,7.4,4.2,80,24,25.0,100.9,Clear
10/22/2012 6:00,7.2,4.1,81,15,25.0,100.95,Clear
10/22/2012 19:00,11.1,5.7,69,13,25.0,101.21,Clear
10/22/2012 21:00,8.4,5.2,80,9,25.0,101.29,Clear
10/22/2012 23:00,6.4,4.4,87,0,25.0,101.34,Clear
10/23/2012 0:00,6.2,4.1,86,6,25.0,101.36,Clear
10/23/2012 1:00,5.8,3.8,87,4,25.0,101.38,Clear
10/23/2012 2:00,4.9,3.3,89,9,25.0,101.4,Clear
10/23/2012 3:00,5.1,3.5,89,7,25.0,101.42,Clear
10/23/2012 4:00,5.1,3.5,89,4,25.0,101.47,Clear
10/23/2012 5:00,5.4,3.6,88,6,25.0,101.54,Clear
10/23/2012 23:00,7.7,0.2,59,13,25.0,101.79,Clear
10/24/2012 0:00,7.3,-1.4,54,13,25.0,101.81,Clear
10/24/2012 1:00,5.1,-1.0,65,13,25.0,101.83,Clear
10/24/2012 2:00,4.0,-1.2,69,7,25.0,101.9,Clear
10/24/2012 3:00,4.9,-0.9,66,7,25.0,101.9,Clear
10/24/2012 4:00,2.0,-1.5,78,9,25.0,101.91,Clear
10/24/2012 5:00,2.6,-1.5,74,9,25.0,101.93,Clear
10/24/2012 6:00,1.9,-1.4,79,7,48.3,101.94,Clear
10/24/2012 7:00,2.6,-0.8,78,11,48.3,101.99,Clear
10/24/2012 8:00,5.8,-0.7,63,11,48.3,102.03,Clear
10/25/2012 19:00,11.4,5.5,67,15,25.0,101.53,Clear
10/25/2012 20:00,11.0,5.9,71,15,25.0,101.51,Clear
10/25/2012 21:00,10.0,5.7,75,13,25.0,101.51,Clear
10/25/2012 22:00,9.8,6.4,79,13,25.0,101.47,Clear
10/25/2012 23:00,9.3,6.6,83,9,25.0,101.45,Clear
10/26/2012 0:00,8.9,6.4,84,9,25.0,101.47,Clear
10/26/2012 3:00,7.7,6.4,91,7,25.0,101.49,Clear
10/26/2012 4:00,7.2,5.2,87,7,25.0,101.48,Clear
10/26/2012 5:00,7.0,5.0,87,9,16.1,101.52,Clear
10/26/2012 6:00,6.9,4.8,86,11,16.1,101.53,Clear
10/26/2012 7:00,6.7,4.5,86,11,19.3,101.57,Clear
10/26/2012 8:00,9.1,6.2,82,6,16.1,101.6,Clear
10/26/2012 9:00,11.7,7.9,77,7,16.1,101.6,Clear
10/26/2012 10:00,15.1,9.8,71,6,16.1,101.54,Clear
10/26/2012 11:00,18.1,12.7,71,4,16.1,101.51,Clear
10/26/2012 12:00,19.8,12.9,64,9,16.1,101.43,Clear
10/26/2012 13:00,20.9,13.3,62,11,19.3,101.36,Clear
10/26/2012 14:00,21.1,13.0,60,9,19.3,101.36,Clear
10/26/2012 15:00,20.4,13.1,63,13,24.1,101.35,Clear
10/26/2012 16:00,18.2,12.3,68,19,24.1,101.3,Clear
11/6/2012 1:00,-3.6,-10.3,60,13,25.0,101.69,Clear
11/6/2012 2:00,-4.7,-9.7,68,9,25.0,101.72,Clear
11/6/2012 3:00,-5.5,-8.9,77,4,25.0,101.76,Clear
11/6/2012 18:00,-0.9,-7.8,59,4,25.0,101.89,Clear
11/6/2012 19:00,-0.3,-7.7,57,0,25.0,101.93,Clear
11/6/2012 20:00,-1.5,-7.3,65,0,25.0,101.94,Clear
11/6/2012 21:00,-0.7,-6.9,63,4,25.0,101.97,Clear
11/6/2012 22:00,-0.9,-6.6,65,4,25.0,101.98,Clear
11/6/2012 23:00,-1.5,-6.4,69,6,25.0,101.96,Clear
11/7/2012 0:00,-0.6,-5.9,67,7,25.0,101.93,Clear
11/7/2012 1:00,-0.9,-6.5,66,9,25.0,101.9,Clear
11/7/2012 2:00,-2.6,-6.9,72,7,25.0,101.94,Clear
11/7/2012 3:00,-3.6,-6.1,83,9,25.0,101.95,Clear
11/7/2012 4:00,-4.0,-6.2,85,11,25.0,102.02,Clear
11/7/2012 5:00,-4.3,-6.5,85,13,25.0,101.98,Clear
11/7/2012 22:00,0.0,-5.6,66,22,25.0,101.58,Clear
11/9/2012 2:00,-4.3,-6.3,86,7,25.0,101.19,Clear
11/9/2012 3:00,-3.6,-5.6,86,7,25.0,101.19,Clear
11/9/2012 4:00,-3.4,-5.2,87,7,25.0,101.2,Clear
11/10/2012 7:00,-1.4,-6.0,71,13,24.1,102.22,Clear
11/10/2012 8:00,0.4,-4.9,68,13,24.1,102.32,Clear
11/10/2012 9:00,2.0,-5.2,59,15,48.3,102.39,Clear
11/10/2012 21:00,1.8,-6.1,56,9,25.0,102.53,Clear
11/11/2012 14:00,6.3,1.6,72,20,48.3,102.08,Clear
11/11/2012 19:00,1.9,0.2,88,17,25.0,102.14,Clear
11/11/2012 20:00,1.5,-0.1,89,15,25.0,102.15,Clear
11/11/2012 22:00,1.0,-0.5,90,13,25.0,102.07,Clear
11/11/2012 23:00,1.1,-0.3,90,15,25.0,102.04,Clear
11/12/2012 3:00,0.2,-0.9,92,15,19.3,101.94,Clear
11/12/2012 4:00,-0.3,-1.1,94,11,19.3,101.95,Clear
11/12/2012 5:00,-0.2,-1.2,93,11,19.3,101.91,Clear
11/13/2012 17:00,3.7,-6.1,49,13,25.0,102.41,Clear
11/13/2012 18:00,2.5,-5.5,56,11,25.0,102.54,Clear
11/13/2012 19:00,0.8,-5.6,62,11,25.0,102.6,Clear
11/13/2012 20:00,-0.7,-6.0,67,9,25.0,102.68,Clear
11/13/2012 21:00,-1.0,-6.0,69,7,25.0,102.75,Clear
11/13/2012 22:00,-0.9,-5.7,70,7,25.0,102.81,Clear
11/13/2012 23:00,-1.5,-5.9,72,7,25.0,102.84,Clear
11/14/2012 0:00,-0.1,-6.0,64,4,25.0,102.91,Clear
11/14/2012 1:00,-0.7,-5.7,69,6,25.0,102.91,Clear
11/14/2012 2:00,-2.3,-6.1,75,6,25.0,102.97,Clear
11/14/2012 3:00,-2.4,-6.7,72,6,25.0,102.99,Clear
11/14/2012 4:00,-4.0,-7.0,80,4,25.0,103.01,Clear
11/14/2012 5:00,-4.7,-6.6,87,4,25.0,103.09,Clear
11/14/2012 6:00,-3.6,-6.1,83,4,25.0,103.15,Clear
11/14/2012 7:00,-5.2,-7.0,87,4,48.3,103.25,Clear
11/14/2012 8:00,-3.0,-4.9,87,4,48.3,103.29,Clear
11/14/2012 9:00,0.6,-3.1,76,6,24.1,103.31,Clear
11/14/2012 10:00,2.4,-4.3,61,2,24.1,103.34,Clear
11/14/2012 11:00,4.6,-5.0,50,4,24.1,103.31,Clear
11/14/2012 14:00,5.2,-6.2,44,6,48.3,103.15,Clear
11/14/2012 15:00,4.6,-7.4,41,6,48.3,103.15,Clear
11/14/2012 18:00,2.8,-6.3,51,7,25.0,103.16,Clear
11/14/2012 19:00,2.5,-5.9,54,9,25.0,103.17,Clear
11/14/2012 20:00,2.1,-5.8,56,11,25.0,103.18,Clear
11/14/2012 21:00,1.8,-6.1,56,7,25.0,103.16,Clear
11/14/2012 22:00,1.4,-5.7,59,13,25.0,103.15,Clear
11/14/2012 23:00,0.4,-6.2,61,11,25.0,103.12,Clear
11/15/2012 0:00,-1.4,-6.1,70,13,25.0,103.1,Clear
11/15/2012 4:00,-3.6,-6.3,82,9,25.0,103.0,Clear
11/15/2012 18:00,1.0,-5.9,60,7,25.0,102.54,Clear
11/15/2012 19:00,0.5,-5.8,63,7,25.0,102.51,Clear
11/15/2012 20:00,-0.7,-5.7,69,4,25.0,102.46,Clear
11/15/2012 21:00,-2.9,-6.3,77,6,25.0,102.46,Clear
11/15/2012 22:00,-1.7,-5.2,77,4,25.0,102.42,Clear
11/15/2012 23:00,-4.3,-6.3,86,6,25.0,102.44,Clear
11/16/2012 0:00,-3.1,-5.5,83,4,25.0,102.42,Clear
11/16/2012 1:00,-5.3,-6.9,88,4,19.3,102.4,Clear
11/16/2012 2:00,-4.5,-6.3,87,0,19.3,102.42,Clear
11/16/2012 3:00,-3.6,-5.1,89,0,19.3,102.4,Clear
11/16/2012 4:00,-6.7,-8.1,90,0,19.3,102.42,Clear
11/16/2012 5:00,-6.5,-7.7,91,4,19.3,102.48,Clear
11/17/2012 0:00,-1.1,-3.5,84,9,25.0,102.9,Clear
11/17/2012 1:00,-1.3,-3.5,85,9,25.0,102.94,Clear
11/17/2012 3:00,-2.0,-5.0,80,11,25.0,103.13,Clear
11/17/2012 4:00,-3.1,-6.5,77,17,25.0,103.17,Clear
11/17/2012 5:00,-2.2,-7.3,68,13,25.0,103.24,Clear
11/17/2012 6:00,-2.6,-8.2,65,13,25.0,103.28,Clear
11/17/2012 17:00,0.9,-7.7,53,4,25.0,103.46,Clear
11/17/2012 19:00,-2.1,-7.2,68,4,25.0,103.51,Clear
11/17/2012 20:00,-0.1,-7.0,60,7,25.0,103.49,Clear
11/17/2012 21:00,-1.4,-6.5,68,7,25.0,103.51,Clear
11/17/2012 22:00,-1.0,-6.3,67,7,25.0,103.54,Clear
11/17/2012 23:00,-1.3,-6.7,67,9,25.0,103.56,Clear
11/18/2012 0:00,-1.6,-6.2,71,0,25.0,103.58,Clear
11/18/2012 1:00,-3.2,-6.9,76,0,25.0,103.59,Clear
11/18/2012 2:00,-4.6,-6.9,84,0,25.0,103.63,Clear
11/18/2012 3:00,-3.9,-6.1,85,7,25.0,103.61,Clear
11/18/2012 4:00,-4.8,-6.9,85,7,25.0,103.59,Clear
11/18/2012 5:00,-5.0,-7.4,83,7,25.0,103.61,Clear
11/19/2012 6:00,-4.3,-7.0,81,7,25.0,103.01,Clear
11/19/2012 7:00,-4.6,-7.1,83,9,16.1,102.99,Clear
11/19/2012 9:00,-0.5,-4.5,74,7,24.1,102.92,Clear
11/19/2012 12:00,4.9,-2.7,58,4,24.1,102.72,Clear
11/19/2012 17:00,3.0,-1.5,72,4,25.0,102.42,Clear
11/19/2012 20:00,-1.4,-3.6,85,6,25.0,102.29,Clear
11/19/2012 22:00,-3.3,-4.3,93,6,12.9,102.21,Clear
11/22/2012 1:00,1.5,0.6,94,6,16.1,101.83,Clear
11/22/2012 2:00,1.3,-0.1,90,4,16.1,101.85,Clear
11/22/2012 3:00,1.1,-0.9,86,4,16.1,101.86,Clear
11/22/2012 4:00,-0.9,-2.3,90,4,12.9,101.84,Clear
11/22/2012 5:00,-1.4,-3.3,87,6,16.1,101.85,Clear
11/22/2012 6:00,-0.3,-2.6,84,9,19.3,101.84,Clear
11/22/2012 9:00,3.3,-0.8,74,6,24.1,101.81,Clear
11/22/2012 10:00,6.4,-1.2,58,0,24.1,101.8,Clear
11/23/2012 0:00,4.5,-1.5,65,15,25.0,101.06,Clear
11/25/2012 2:00,-3.3,-9.4,63,33,25.0,100.15,Clear
11/25/2012 17:00,-3.1,-11.8,51,24,25.0,100.27,Clear
11/25/2012 18:00,-3.4,-11.5,53,20,25.0,100.35,Clear
11/25/2012 19:00,-3.7,-11.0,57,22,25.0,100.39,Clear
11/26/2012 10:00,-3.4,-11.3,54,19,48.3,101.25,Clear
11/26/2012 11:00,-2.5,-10.9,52,22,48.3,101.3,Clear
11/26/2012 13:00,-1.0,-10.6,48,24,48.3,101.34,Clear
11/26/2012 14:00,-0.8,-11.3,45,24,48.3,101.38,Clear
11/26/2012 15:00,-0.9,-9.9,50,26,48.3,101.48,Clear
11/26/2012 16:00,-1.8,-9.0,58,24,48.3,101.56,Clear
11/26/2012 17:00,-3.0,-9.5,61,20,25.0,101.67,Clear
11/26/2012 18:00,-3.4,-9.5,63,20,25.0,101.75,Clear
11/26/2012 19:00,-3.8,-10.0,62,15,25.0,101.81,Clear
11/26/2012 20:00,-4.6,-10.0,66,13,25.0,101.85,Clear
11/26/2012 21:00,-7.3,-10.3,79,7,25.0,101.87,Clear
11/26/2012 22:00,-5.4,-9.6,72,0,25.0,101.9,Clear
11/26/2012 23:00,-5.8,-9.7,74,4,25.0,101.94,Clear
11/27/2012 0:00,-7.4,-9.9,82,4,25.0,101.97,Clear
11/27/2012 1:00,-9.0,-11.0,85,4,25.0,101.98,Clear
11/27/2012 16:00,-0.5,-6.9,62,7,24.1,102.08,Clear
11/27/2012 17:00,-2.2,-7.0,70,6,25.0,102.09,Clear
11/27/2012 18:00,-2.8,-7.0,73,4,25.0,102.15,Clear
11/27/2012 19:00,-2.8,-6.7,74,6,25.0,102.16,Clear
11/27/2012 20:00,-4.5,-7.5,80,6,25.0,102.14,Clear
11/29/2012 0:00,-3.9,-8.6,70,28,25.0,101.62,Clear
11/29/2012 1:00,-5.1,-10.6,65,22,25.0,101.71,Clear
11/29/2012 2:00,-6.3,-11.9,64,17,25.0,101.8,Clear
11/29/2012 3:00,-7.4,-12.2,68,17,25.0,101.87,Clear
11/29/2012 4:00,-8.4,-12.4,73,9,25.0,101.86,Clear
11/30/2012 0:00,-10.6,-16.1,64,19,25.0,102.52,Clear
11/30/2012 1:00,-12.0,-16.5,69,9,25.0,102.6,Clear
11/30/2012 2:00,-13.5,-16.9,76,6,25.0,102.72,Clear
11/30/2012 3:00,-12.6,-16.7,71,4,25.0,102.78,Clear
11/30/2012 4:00,-12.4,-17.0,68,4,25.0,102.82,Clear
11/30/2012 5:00,-13.6,-17.0,75,6,25.0,102.9,Clear
12/1/2012 0:00,-10.8,-16.2,64,9,25.0,103.26,Clear
12/3/2012 6:00,1.8,-0.1,87,11,25.0,101.58,Clear
12/11/2012 15:00,-5.7,-11.5,64,13,24.1,101.29,Clear
12/11/2012 16:00,-6.1,-11.6,65,15,24.1,101.35,Clear
12/11/2012 17:00,-6.8,-11.7,68,11,24.1,101.45,Clear
12/11/2012 18:00,-6.9,-11.5,70,13,25.0,101.51,Clear
12/11/2012 19:00,-7.9,-11.0,78,13,25.0,101.6,Clear
12/11/2012 20:00,-7.9,-11.3,77,15,25.0,101.68,Clear
12/11/2012 21:00,-8.7,-11.6,79,9,25.0,101.74,Clear
12/11/2012 22:00,-9.1,-11.4,83,6,25.0,101.78,Clear
12/11/2012 23:00,-8.3,-11.2,80,9,25.0,101.84,Clear
12/12/2012 0:00,-9.2,-11.6,83,7,25.0,101.87,Clear
12/12/2012 1:00,-9.4,-11.5,85,7,25.0,101.91,Clear
12/12/2012 2:00,-10.3,-12.0,87,4,25.0,101.96,Clear
12/12/2012 3:00,-9.6,-11.3,87,4,25.0,102.0,Clear
12/12/2012 4:00,-10.1,-11.6,89,6,25.0,102.04,Clear
12/12/2012 5:00,-10.3,-11.7,89,4,25.0,102.06,Clear
12/12/2012 6:00,-9.5,-11.3,87,4,25.0,102.1,Clear
12/13/2012 0:00,-6.1,-7.4,90,6,12.9,102.44,Clear
12/13/2012 1:00,-4.3,-5.3,93,11,12.9,102.49,Clear
12/13/2012 2:00,-5.9,-6.6,95,6,11.3,102.57,Clear
12/13/2012 3:00,-6.1,-7.0,93,11,11.3,102.61,Clear
12/15/2012 0:00,-5.3,-10.5,67,20,25.0,102.18,Clear
12/15/2012 1:00,-6.5,-11.4,68,17,25.0,102.27,Clear
12/15/2012 2:00,-7.1,-11.8,69,19,25.0,102.36,Clear
12/15/2012 3:00,-8.0,-13.2,66,17,25.0,102.41,Clear
12/15/2012 4:00,-8.5,-13.8,66,15,25.0,102.42,Clear
12/15/2012 5:00,-9.3,-14.2,67,20,25.0,102.47,Clear
12/15/2012 6:00,-9.9,-14.5,69,17,25.0,102.58,Clear
12/15/2012 7:00,-10.2,-15.1,67,19,48.3,102.63,Clear
12/15/2012 8:00,-10.7,-15.6,67,13,48.3,102.69,Clear
12/15/2012 9:00,-10.4,-15.9,64,19,48.3,102.74,Clear
12/15/2012 13:00,-8.4,-14.7,60,19,48.3,102.64,Clear
12/15/2012 18:00,-9.1,-15.1,62,17,25.0,102.54,Clear
12/15/2012 20:00,-8.7,-15.1,60,20,25.0,102.5,Clear
12/24/2012 7:00,-11.1,-13.9,80,15,25.0,101.23,Clear
12/24/2012 8:00,-11.0,-13.9,79,13,25.0,101.32,Clear
12/24/2012 9:00,-10.5,-13.7,77,13,24.1,101.41,Clear
12/24/2012 18:00,-10.4,-13.8,76,9,25.0,101.45,Clear
12/25/2012 15:00,-7.1,-13.7,59,17,48.3,101.98,Clear
12/25/2012 16:00,-7.5,-13.9,60,11,48.3,102.03,Clear
12/25/2012 17:00,-8.3,-13.4,67,13,25.0,102.1,Clear
12/25/2012 21:00,-9.7,-12.5,80,4,25.0,102.28,Clear
12/25/2012 22:00,-10.9,-13.2,83,4,25.0,102.34,Clear
12/25/2012 23:00,-10.4,-12.7,83,11,25.0,102.45,Clear
12/26/2012 0:00,-11.8,-13.5,87,4,25.0,102.41,Clear
12/26/2012 1:00,-11.2,-12.9,87,6,25.0,102.42,Clear
12/26/2012 2:00,-12.7,-14.4,87,4,25.0,102.45,Clear
12/26/2012 3:00,-14.2,-15.8,88,6,25.0,102.52,Clear
12/26/2012 4:00,-13.1,-14.7,88,6,25.0,102.55,Clear
12/26/2012 5:00,-12.7,-14.1,89,4,25.0,102.48,Clear
12/26/2012 6:00,-13.4,-14.8,89,4,25.0,102.47,Clear
12/28/2012 10:00,-6.1,-8.6,82,19,24.1,101.27,Clear
12/29/2012 1:00,-11.9,-13.6,87,11,25.0,101.31,Clear
12/29/2012 2:00,-11.8,-13.1,90,13,25.0,101.33,Clear
12/30/2012 20:00,-13.8,-16.5,80,24,25.0,101.52,Clear
